{
  "type": "FeatureCollection",
  "features": [
    {
      "type": "Feature",
      "properties": {
        "place": "Palotina, Parana, Brazil",
        "display_name": "Palotina, Paraná, Região Sul, Brasil",
        "osm_type": "relation",
        "osm_id": 297509,
        "retrieved_at": "2026-09-29T11:08:39Z"
      },
      "geometry": {
        "type": "Polygon",
        "coordinates": [
          [
            [
              -53.9665566,
              -24.3697489
            ],
            [
              -53.9663659,
              -24.3697682
            ],
            [
              -53.9658469,
              -24.3697962
            ],
            [
              -53.9627463,
              -24.3697719
            ],
            [
              -53.9542986,
              -24.3697932
            ],
            [
              -53.9541028,
              -24.3697957
            ],
            [
              -53.9530233,
              -24.3698109
            ],
            [
              -53.9500259,
              -24.3698109
            ],
            [
              -53.9485869,
              -24.3697647
            ],
            [
              -53.9477916,
              -24.3698488
            ],
            [
              -53.9475153,
              -24.369839
            ],
            [
              -53.9472887,
              -24.3698378
            ],
            [
              -53.9449525,
              -24.369839
            ],
            [
              -53.941927,
              -24.3698158
            ],
            [
              -53.941365,
              -24.3698207
            ],
            [
              -53.9409224,
              -24.3698048
            ],
            [
              -53.9407924,
              -24.3698182
            ],
            [
              -53.9392815,
              -24.3697866
            ],
            [
              -53.9385313,
              -24.3697877
            ],
            [
              -53.9380058,
              -24.3697756
            ],
            [
              -53.9256095,
              -24.369822
            ],
            [
              -53.9254019,
              -24.3698195
            ],
            [
              -53.9234652,
              -24.369824
            ],
            [
              -53.9231958,
              -24.3698292
            ],
            [
              -53.9229075,
              -24.3698256
            ],
            [
              -53.9225145,
              -24.3698134
            ],
            [
              -53.9222408,
              -24.3698134
            ],
            [
              -53.9221068,
              -24.3698096
            ],
            [
              -53.9216194,
              -24.3698403
            ],
            [
              -53.9212659,
              -24.3698482
            ],
            [
              -53.920877,
              -24.369817
            ],
            [
              -53.9120397,
              -24.3698742
            ],
            [
              -53.9103658,
              -24.3699194
            ],
            [
              -53.9077777,
              -24.3698365
            ],
            [
              -53.9074088,
              -24.3699275
            ],
            [
              -53.9055361,
              -24.369839
            ],
            [
              -53.9010984,
              -24.3698793
            ],
            [
              -53.8962637,
              -24.3698763
            ],
            [
              -53.8955988,
              -24.3698781
            ],
            [
              -53.8917965,
              -24.3698872
            ],
            [
              -53.886373,
              -24.3699001
            ],
            [
              -53.884061,
              -24.3699062
            ],
            [
              -53.8826731,
              -24.369899
            ],
            [
              -53.8824694,
              -24.3699004
            ],
            [
              -53.8812178,
              -24.3698781
            ],
            [
              -53.8808169,
              -24.3698806
            ],
            [
              -53.8803642,
              -24.3698842
            ],
            [
              -53.8762813,
              -24.3698941
            ],
            [
              -53.8731216,
              -24.3698903
            ],
            [
              -53.8563551,
              -24.3699013
            ],
            [
              -53.8556129,
              -24.369879
            ],
            [
              -53.8555112,
              -24.3698763
            ],
            [
              -53.8546238,
              -24.3698735
            ],
            [
              -53.8541732,
              -24.3698755
            ],
            [
              -53.8536715,
              -24.3699143
            ],
            [
              -53.8474159,
              -24.3699057
            ],
            [
              -53.8469017,
              -24.3699152
            ],
            [
              -53.8462553,
              -24.3699192
            ],
            [
              -53.8455518,
              -24.3699236
            ],
            [
              -53.835112,
              -24.3699129
            ],
            [
              -53.8285393,
              -24.3698989
            ],
            [
              -53.8271841,
              -24.36992
            ],
            [
              -53.8268082,
              -24.3699277
            ],
            [
              -53.8264573,
              -24.3699216
            ],
            [
              -53.8264009,
              -24.3699202
            ],
            [
              -53.8263752,
              -24.3699196
            ],
            [
              -53.8257857,
              -24.369901
            ],
            [
              -53.8079828,
              -24.3698835
            ],
            [
              -53.8073244,
              -24.3698827
            ],
            [
              -53.7965754,
              -24.3698109
            ],
            [
              -53.7901541,
              -24.3697883
            ],
            [
              -53.7805328,
              -24.3697597
            ],
            [
              -53.7781577,
              -24.369752
            ],
            [
              -53.7747017,
              -24.3697409
            ],
            [
              -53.7646336,
              -24.3697125
            ],
            [
              -53.7625033,
              -24.3696971
            ],
            [
              -53.755053,
              -24.3696609
            ],
            [
              -53.7532647,
              -24.369649
            ],
            [
              -53.7524024,
              -24.3696433
            ],
            [
              -53.7508645,
              -24.3696331
            ],
            [
              -53.7498755,
              -24.3696265
            ],
            [
              -53.7497775,
              -24.3696263
            ],
            [
              -53.7483252,
              -24.3696232
            ],
            [
              -53.7411958,
              -24.3696313
            ],
            [
              -53.7323121,
              -24.3695899
            ],
            [
              -53.7294487,
              -24.3695947
            ],
            [
              -53.7153428,
              -24.3695397
            ],
            [
              -53.7150748,
              -24.3695483
            ],
            [
              -53.714,
              -24.396
            ],
            [
              -53.7154131,
              -24.4674687
            ],
            [
              -53.7144435,
              -24.4666087
            ],
            [
              -53.7141538,
              -24.4654515
            ],
            [
              -53.7127934,
              -24.4642817
            ],
            [
              -53.7123121,
              -24.4637651
            ],
            [
              -53.7118195,
              -24.4632364
            ],
            [
              -53.7079823,
              -24.4593948
            ],
            [
              -53.7078116,
              -24.4585383
            ],
            [
              -53.7073677,
              -24.4567217
            ],
            [
              -53.7069503,
              -24.4551018
            ],
            [
              -53.7067872,
              -24.4535787
            ],
            [
              -53.7057266,
              -24.4505502
            ],
            [
              -53.7054383,
              -24.4496418
            ],
            [
              -53.7050218,
              -24.4475842
            ],
            [
              -53.703932,
              -24.445231
            ],
            [
              -53.7038853,
              -24.4442464
            ],
            [
              -53.7033199,
              -24.4432827
            ],
            [
              -53.7023182,
              -24.4429235
            ],
            [
              -53.7013263,
              -24.4424767
            ],
            [
              -53.6993436,
              -24.4419114
            ],
            [
              -53.6985013,
              -24.4412759
            ],
            [
              -53.6967711,
              -24.4406092
            ],
            [
              -53.6949954,
              -24.4405574
            ],
            [
              -53.6918286,
              -24.4398963
            ],
            [
              -53.6906483,
              -24.4387331
            ],
            [
              -53.690219,
              -24.4381616
            ],
            [
              -53.6899507,
              -24.4352305
            ],
            [
              -53.6896556,
              -24.4322553
            ],
            [
              -53.6868225,
              -24.4297882
            ],
            [
              -53.6850464,
              -24.427878
            ],
            [
              -53.6833401,
              -24.4260655
            ],
            [
              -53.6814596,
              -24.4231425
            ],
            [
              -53.6811939,
              -24.4227293
            ],
            [
              -53.6799672,
              -24.4206563
            ],
            [
              -53.6790443,
              -24.4186629
            ],
            [
              -53.6786818,
              -24.4176729
            ],
            [
              -53.6782266,
              -24.4163056
            ],
            [
              -53.6780423,
              -24.4154614
            ],
            [
              -53.6777004,
              -24.4132732
            ],
            [
              -53.6778028,
              -24.4121561
            ],
            [
              -53.6762326,
              -24.4042879
            ],
            [
              -53.6760417,
              -24.4016833
            ],
            [
              -53.6741904,
              -24.3997516
            ],
            [
              -53.6727126,
              -24.3963228
            ],
            [
              -53.6707273,
              -24.3915338
            ],
            [
              -53.6678297,
              -24.3879468
            ],
            [
              -53.6669597,
              -24.385593
            ],
            [
              -53.6671648,
              -24.3844658
            ],
            [
              -53.6678369,
              -24.3834406
            ],
            [
              -53.667395,
              -24.3823669
            ],
            [
              -53.666845,
              -24.3817137
            ],
            [
              -53.6656704,
              -24.3808777
            ],
            [
              -53.6649533,
              -24.3799861
            ],
            [
              -53.6635274,
              -24.3788721
            ],
            [
              -53.6640465,
              -24.3779768
            ],
            [
              -53.6652227,
              -24.3773962
            ],
            [
              -53.665549,
              -24.3768917
            ],
            [
              -53.6665203,
              -24.3747974
            ],
            [
              -53.6664748,
              -24.3741753
            ],
            [
              -53.6654883,
              -24.3731592
            ],
            [
              -53.6632421,
              -24.3720602
            ],
            [
              -53.6615704,
              -24.370346
            ],
            [
              -53.6642867,
              -24.3695253
            ],
            [
              -53.6698839,
              -24.3694811
            ],
            [
              -53.6767477,
              -24.369552
            ],
            [
              -53.6769864,
              -24.3695043
            ],
            [
              -53.6858912,
              -24.3694522
            ],
            [
              -53.6867475,
              -24.3694493
            ],
            [
              -53.6890277,
              -24.3636214
            ],
            [
              -53.6924306,
              -24.3586864
            ],
            [
              -53.6916988,
              -24.355326
            ],
            [
              -53.6919265,
              -24.3505006
            ],
            [
              -53.6928826,
              -24.3475416
            ],
            [
              -53.6940513,
              -24.3454952
            ],
            [
              -53.6946583,
              -24.3446794
            ],
            [
              -53.6948404,
              -24.3434626
            ],
            [
              -53.6952199,
              -24.3422734
            ],
            [
              -53.6974509,
              -24.3401716
            ],
            [
              -53.6982942,
              -24.3386669
            ],
            [
              -53.6982048,
              -24.336681
            ],
            [
              -53.6982832,
              -24.335513
            ],
            [
              -53.6993945,
              -24.3339515
            ],
            [
              -53.7000395,
              -24.3325479
            ],
            [
              -53.7018347,
              -24.3303112
            ],
            [
              -53.7032613,
              -24.3294935
            ],
            [
              -53.7041953,
              -24.3243014
            ],
            [
              -53.7042168,
              -24.3205658
            ],
            [
              -53.703438,
              -24.3132959
            ],
            [
              -53.7027573,
              -24.3088497
            ],
            [
              -53.7014937,
              -24.3047285
            ],
            [
              -53.6984339,
              -24.2938114
            ],
            [
              -53.6961992,
              -24.289419
            ],
            [
              -53.6942597,
              -24.2860668
            ],
            [
              -53.6929552,
              -24.2847946
            ],
            [
              -53.6924239,
              -24.2842249
            ],
            [
              -53.6913789,
              -24.2836893
            ],
            [
              -53.6892554,
              -24.2827943
            ],
            [
              -53.6868458,
              -24.2820369
            ],
            [
              -53.684087,
              -24.2817839
            ],
            [
              -53.6829336,
              -24.2822612
            ],
            [
              -53.6824305,
              -24.2831292
            ],
            [
              -53.6802131,
              -24.2835307
            ],
            [
              -53.6790544,
              -24.2836921
            ],
            [
              -53.6781482,
              -24.283972
            ],
            [
              -53.6778098,
              -24.2840344
            ],
            [
              -53.6773968,
              -24.283873
            ],
            [
              -53.6769837,
              -24.2838094
            ],
            [
              -53.6760086,
              -24.2837012
            ],
            [
              -53.6742595,
              -24.2844109
            ],
            [
              -53.6729121,
              -24.2842935
            ],
            [
              -53.6721826,
              -24.2843766
            ],
            [
              -53.6719036,
              -24.284005
            ],
            [
              -53.6719479,
              -24.2832611
            ],
            [
              -53.6716139,
              -24.2826652
            ],
            [
              -53.6709809,
              -24.2824501
            ],
            [
              -53.6707503,
              -24.28223
            ],
            [
              -53.6703694,
              -24.2820833
            ],
            [
              -53.6702085,
              -24.2821713
            ],
            [
              -53.6701441,
              -24.2821445
            ],
            [
              -53.6699805,
              -24.2820075
            ],
            [
              -53.6700019,
              -24.2819122
            ],
            [
              -53.6699563,
              -24.281763
            ],
            [
              -53.6698329,
              -24.2815846
            ],
            [
              -53.6698293,
              -24.2815132
            ],
            [
              -53.6701387,
              -24.2810271
            ],
            [
              -53.6702138,
              -24.2807215
            ],
            [
              -53.6701602,
              -24.2806799
            ],
            [
              -53.6700073,
              -24.2806286
            ],
            [
              -53.6699563,
              -24.2805626
            ],
            [
              -53.6700422,
              -24.2803719
            ],
            [
              -53.6701334,
              -24.2801934
            ],
            [
              -53.6700797,
              -24.2799954
            ],
            [
              -53.6702594,
              -24.2798682
            ],
            [
              -53.6702648,
              -24.2797851
            ],
            [
              -53.6701843,
              -24.2796188
            ],
            [
              -53.6702648,
              -24.2795822
            ],
            [
              -53.6704928,
              -24.2795675
            ],
            [
              -53.6705625,
              -24.2794575
            ],
            [
              -53.6705276,
              -24.2792912
            ],
            [
              -53.6703184,
              -24.2791812
            ],
            [
              -53.6701897,
              -24.2791078
            ],
            [
              -53.6699027,
              -24.2791005
            ],
            [
              -53.6698893,
              -24.2789978
            ],
            [
              -53.6700287,
              -24.2788193
            ],
            [
              -53.6700287,
              -24.2786702
            ],
            [
              -53.669908,
              -24.2785039
            ],
            [
              -53.6699188,
              -24.2784355
            ],
            [
              -53.6702862,
              -24.2783059
            ],
            [
              -53.6703855,
              -24.2781543
            ],
            [
              -53.6702326,
              -24.2779342
            ],
            [
              -53.6701548,
              -24.2777411
            ],
            [
              -53.6702701,
              -24.2776188
            ],
            [
              -53.6706349,
              -24.2774917
            ],
            [
              -53.6706054,
              -24.2774135
            ],
            [
              -53.6704096,
              -24.2774257
            ],
            [
              -53.6702138,
              -24.277367
            ],
            [
              -53.6701749,
              -24.2771974
            ],
            [
              -53.6703667,
              -24.2768755
            ],
            [
              -53.6706591,
              -24.2766653
            ],
            [
              -53.6707073,
              -24.2764941
            ],
            [
              -53.670423,
              -24.2763328
            ],
            [
              -53.6702621,
              -24.2762056
            ],
            [
              -53.6702433,
              -24.2760711
            ],
            [
              -53.6707529,
              -24.2756873
            ],
            [
              -53.67071,
              -24.2755992
            ],
            [
              -53.6704364,
              -24.2756115
            ],
            [
              -53.6703908,
              -24.2755283
            ],
            [
              -53.6710024,
              -24.2742349
            ],
            [
              -53.6712022,
              -24.2740784
            ],
            [
              -53.671229,
              -24.274021
            ],
            [
              -53.6712129,
              -24.2739305
            ],
            [
              -53.6712652,
              -24.273829
            ],
            [
              -53.6712988,
              -24.2737447
            ],
            [
              -53.6712103,
              -24.2735503
            ],
            [
              -53.6713149,
              -24.2734231
            ],
            [
              -53.6715576,
              -24.2733278
            ],
            [
              -53.6716837,
              -24.2731603
            ],
            [
              -53.6716703,
              -24.2730943
            ],
            [
              -53.6715616,
              -24.2730845
            ],
            [
              -53.6713214,
              -24.2730207
            ],
            [
              -53.6710399,
              -24.2727434
            ],
            [
              -53.6709648,
              -24.2722348
            ],
            [
              -53.6711687,
              -24.2716186
            ],
            [
              -53.6711794,
              -24.2711687
            ],
            [
              -53.6713511,
              -24.2710171
            ],
            [
              -53.6715764,
              -24.2709805
            ],
            [
              -53.6716622,
              -24.2708998
            ],
            [
              -53.6715496,
              -24.2706015
            ],
            [
              -53.6717641,
              -24.270445
            ],
            [
              -53.6716032,
              -24.2702151
            ],
            [
              -53.6715818,
              -24.2700342
            ],
            [
              -53.6717856,
              -24.2693985
            ],
            [
              -53.6717534,
              -24.2688703
            ],
            [
              -53.6718773,
              -24.2686615
            ],
            [
              -53.6725527,
              -24.2680609
            ],
            [
              -53.6734253,
              -24.2673886
            ],
            [
              -53.6735317,
              -24.2669826
            ],
            [
              -53.6735612,
              -24.2667454
            ],
            [
              -53.6735164,
              -24.2666
            ],
            [
              -53.6732876,
              -24.2663395
            ],
            [
              -53.6732501,
              -24.2660681
            ],
            [
              -53.6732504,
              -24.2655573
            ],
            [
              -53.6730762,
              -24.2631825
            ],
            [
              -53.6732233,
              -24.2627866
            ],
            [
              -53.6731535,
              -24.2626447
            ],
            [
              -53.6729658,
              -24.2623268
            ],
            [
              -53.6726332,
              -24.2620676
            ],
            [
              -53.6720261,
              -24.2614837
            ],
            [
              -53.6714047,
              -24.26062
            ],
            [
              -53.6711902,
              -24.2601799
            ],
            [
              -53.6713222,
              -24.2598583
            ],
            [
              -53.6719412,
              -24.2594022
            ],
            [
              -53.6720377,
              -24.2592604
            ],
            [
              -53.6719841,
              -24.2586197
            ],
            [
              -53.6721611,
              -24.2583312
            ],
            [
              -53.6726064,
              -24.2582138
            ],
            [
              -53.6732917,
              -24.2569968
            ],
            [
              -53.6740738,
              -24.2562126
            ],
            [
              -53.677948,
              -24.2523275
            ],
            [
              -53.6781478,
              -24.2500166
            ],
            [
              -53.6783946,
              -24.2491851
            ],
            [
              -53.678515,
              -24.2487141
            ],
            [
              -53.6797035,
              -24.2477471
            ],
            [
              -53.6829329,
              -24.2464069
            ],
            [
              -53.6842311,
              -24.2464069
            ],
            [
              -53.6859799,
              -24.2474928
            ],
            [
              -53.6871922,
              -24.2473167
            ],
            [
              -53.6890858,
              -24.246562
            ],
            [
              -53.6911833,
              -24.247302
            ],
            [
              -53.6916259,
              -24.2468459
            ],
            [
              -53.6926197,
              -24.2467249
            ],
            [
              -53.6938387,
              -24.2462113
            ],
            [
              -53.6947299,
              -24.2462804
            ],
            [
              -53.6955822,
              -24.2460255
            ],
            [
              -53.6965907,
              -24.2447244
            ],
            [
              -53.6971824,
              -24.2425696
            ],
            [
              -53.6952963,
              -24.2299389
            ],
            [
              -53.6943136,
              -24.2224042
            ],
            [
              -53.6941564,
              -24.2213084
            ],
            [
              -53.6940644,
              -24.2197309
            ],
            [
              -53.6941402,
              -24.218119
            ],
            [
              -53.6942996,
              -24.2176138
            ],
            [
              -53.694578,
              -24.2170995
            ],
            [
              -53.6947382,
              -24.216285
            ],
            [
              -53.69489,
              -24.2150844
            ],
            [
              -53.694937,
              -24.2144995
            ],
            [
              -53.6950322,
              -24.2127885
            ],
            [
              -53.694789,
              -24.2120876
            ],
            [
              -53.6947207,
              -24.2116274
            ],
            [
              -53.6944893,
              -24.2108245
            ],
            [
              -53.6947701,
              -24.2101186
            ],
            [
              -53.6948687,
              -24.2097691
            ],
            [
              -53.6945234,
              -24.2087725
            ],
            [
              -53.6948763,
              -24.2080146
            ],
            [
              -53.6945083,
              -24.2072325
            ],
            [
              -53.6943641,
              -24.2067065
            ],
            [
              -53.6935749,
              -24.2061874
            ],
            [
              -53.6933738,
              -24.2056545
            ],
            [
              -53.6934482,
              -24.2054844
            ],
            [
              -53.693996,
              -24.2054122
            ],
            [
              -53.6942616,
              -24.2053015
            ],
            [
              -53.6942313,
              -24.2051492
            ],
            [
              -53.6937229,
              -24.2049485
            ],
            [
              -53.6926795,
              -24.2043394
            ],
            [
              -53.6924603,
              -24.2036159
            ],
            [
              -53.6925212,
              -24.2033044
            ],
            [
              -53.6924214,
              -24.203107
            ],
            [
              -53.6921833,
              -24.2022837
            ],
            [
              -53.6932468,
              -24.2015163
            ],
            [
              -53.6941247,
              -24.2004429
            ],
            [
              -53.6945077,
              -24.1996762
            ],
            [
              -53.6946851,
              -24.1989265
            ],
            [
              -53.6949093,
              -24.196967
            ],
            [
              -53.6949934,
              -24.1948797
            ],
            [
              -53.6950396,
              -24.1939516
            ],
            [
              -53.6950961,
              -24.192818
            ],
            [
              -53.6951988,
              -24.1917616
            ],
            [
              -53.6954842,
              -24.1905247
            ],
            [
              -53.6960446,
              -24.1894512
            ],
            [
              -53.6973896,
              -24.1878835
            ],
            [
              -53.6993323,
              -24.1856683
            ],
            [
              -53.7007077,
              -24.1845236
            ],
            [
              -53.7034886,
              -24.1822091
            ],
            [
              -53.7057395,
              -24.1803431
            ],
            [
              -53.706907,
              -24.1796359
            ],
            [
              -53.7072685,
              -24.1795014
            ],
            [
              -53.7083057,
              -24.1791154
            ],
            [
              -53.7093634,
              -24.1789372
            ],
            [
              -53.7103177,
              -24.1790309
            ],
            [
              -53.7108391,
              -24.1790821
            ],
            [
              -53.7127912,
              -24.1793888
            ],
            [
              -53.7160509,
              -24.1796359
            ],
            [
              -53.7191424,
              -24.1796189
            ],
            [
              -53.7216953,
              -24.180055
            ],
            [
              -53.7257458,
              -24.1809055
            ],
            [
              -53.7283049,
              -24.1816552
            ],
            [
              -53.7304531,
              -24.1824562
            ],
            [
              -53.7343292,
              -24.1842028
            ],
            [
              -53.7387933,
              -24.1858766
            ],
            [
              -53.7406173,
              -24.1866298
            ],
            [
              -53.7420222,
              -24.187518
            ],
            [
              -53.7434518,
              -24.1882262
            ],
            [
              -53.7453867,
              -24.1883274
            ],
            [
              -53.7467301,
              -24.1879789
            ],
            [
              -53.7477283,
              -24.1872931
            ],
            [
              -53.7482213,
              -24.1860677
            ],
            [
              -53.7481473,
              -24.1841677
            ],
            [
              -53.7477899,
              -24.1826612
            ],
            [
              -53.7473995,
              -24.182043
            ],
            [
              -53.7462428,
              -24.1802116
            ],
            [
              -53.7434963,
              -24.1775494
            ],
            [
              -53.7398914,
              -24.1733211
            ],
            [
              -53.7361148,
              -24.1684661
            ],
            [
              -53.7347415,
              -24.163611
            ],
            [
              -53.7359432,
              -24.1582857
            ],
            [
              -53.7397197,
              -24.1520205
            ],
            [
              -53.7406004,
              -24.1510807
            ],
            [
              -53.7412359,
              -24.1506084
            ],
            [
              -53.7418449,
              -24.1500136
            ],
            [
              -53.7423912,
              -24.1496416
            ],
            [
              -53.7430465,
              -24.1493871
            ],
            [
              -53.7436602,
              -24.1493458
            ],
            [
              -53.7438103,
              -24.1493641
            ],
            [
              -53.7450412,
              -24.1495143
            ],
            [
              -53.7545892,
              -24.1518131
            ],
            [
              -53.7582558,
              -24.1530919
            ],
            [
              -53.7602695,
              -24.1546701
            ],
            [
              -53.7604643,
              -24.1548864
            ],
            [
              -53.7630125,
              -24.1582975
            ],
            [
              -53.7649007,
              -24.1595619
            ],
            [
              -53.7680665,
              -24.1611392
            ],
            [
              -53.7719737,
              -24.1626376
            ],
            [
              -53.7763765,
              -24.1644975
            ],
            [
              -53.7774036,
              -24.1647035
            ],
            [
              -53.7809491,
              -24.1654146
            ],
            [
              -53.7899801,
              -24.1666494
            ],
            [
              -53.7919065,
              -24.1669128
            ],
            [
              -53.7958987,
              -24.167817
            ],
            [
              -53.7993105,
              -24.1690698
            ],
            [
              -53.8009385,
              -24.1704389
            ],
            [
              -53.8010201,
              -24.1705921
            ],
            [
              -53.8016888,
              -24.1718467
            ],
            [
              -53.8018611,
              -24.1731644
            ],
            [
              -53.8039114,
              -24.1776198
            ],
            [
              -53.804506,
              -24.1785496
            ],
            [
              -53.8057235,
              -24.1799057
            ],
            [
              -53.8065163,
              -24.1814425
            ],
            [
              -53.8073515,
              -24.1841804
            ],
            [
              -53.8083142,
              -24.1856139
            ],
            [
              -53.8099292,
              -24.1863189
            ],
            [
              -53.8115561,
              -24.1862725
            ],
            [
              -53.8131558,
              -24.1859367
            ],
            [
              -53.8148405,
              -24.1850586
            ],
            [
              -53.8163553,
              -24.1837026
            ],
            [
              -53.8186062,
              -24.1816363
            ],
            [
              -53.8195815,
              -24.1808119
            ],
            [
              -53.8217738,
              -24.1789588
            ],
            [
              -53.8250758,
              -24.1768061
            ],
            [
              -53.8276103,
              -24.1747305
            ],
            [
              -53.8289265,
              -24.1736548
            ],
            [
              -53.8302289,
              -24.1723245
            ],
            [
              -53.8320176,
              -24.170528
            ],
            [
              -53.8334468,
              -24.1690926
            ],
            [
              -53.8352546,
              -24.1678944
            ],
            [
              -53.8374347,
              -24.1669645
            ],
            [
              -53.8390344,
              -24.1665512
            ],
            [
              -53.8395261,
              -24.1664871
            ],
            [
              -53.8409173,
              -24.1663058
            ],
            [
              -53.8427293,
              -24.1664866
            ],
            [
              -53.8429177,
              -24.1666017
            ],
            [
              -53.8439182,
              -24.1672132
            ],
            [
              -53.8451218,
              -24.1683594
            ],
            [
              -53.8460398,
              -24.170166
            ],
            [
              -53.8461128,
              -24.1703097
            ],
            [
              -53.8466083,
              -24.172712
            ],
            [
              -53.8463818,
              -24.1740423
            ],
            [
              -53.8459146,
              -24.1751272
            ],
            [
              -53.8461529,
              -24.1784384
            ],
            [
              -53.8464667,
              -24.1827986
            ],
            [
              -53.849199,
              -24.1869828
            ],
            [
              -53.8509827,
              -24.1883
            ],
            [
              -53.8544936,
              -24.1893073
            ],
            [
              -53.859711,
              -24.1910166
            ],
            [
              -53.8618909,
              -24.1911468
            ],
            [
              -53.8623611,
              -24.1911749
            ],
            [
              -53.8654968,
              -24.1908585
            ],
            [
              -53.8678752,
              -24.1898448
            ],
            [
              -53.8696165,
              -24.1888311
            ],
            [
              -53.8714993,
              -24.187417
            ],
            [
              -53.8731273,
              -24.1857511
            ],
            [
              -53.8758242,
              -24.1830649
            ],
            [
              -53.8764145,
              -24.1823799
            ],
            [
              -53.8779053,
              -24.1806499
            ],
            [
              -53.8790449,
              -24.1796942
            ],
            [
              -53.8812604,
              -24.1782736
            ],
            [
              -53.8831503,
              -24.1773695
            ],
            [
              -53.8849199,
              -24.1769692
            ],
            [
              -53.8868335,
              -24.1770796
            ],
            [
              -53.8882679,
              -24.1774119
            ],
            [
              -53.891504,
              -24.1783984
            ],
            [
              -53.8936018,
              -24.1789399
            ],
            [
              -53.8962444,
              -24.1791624
            ],
            [
              -53.9002123,
              -24.1791328
            ],
            [
              -53.9023263,
              -24.1785468
            ],
            [
              -53.9042615,
              -24.1777605
            ],
            [
              -53.9058212,
              -24.1767363
            ],
            [
              -53.9062744,
              -24.1764387
            ],
            [
              -53.9076424,
              -24.174859
            ],
            [
              -53.9093185,
              -24.1726441
            ],
            [
              -53.9104087,
              -24.1712649
            ],
            [
              -53.9123626,
              -24.1687931
            ],
            [
              -53.9144084,
              -24.1666623
            ],
            [
              -53.9154375,
              -24.1660608
            ],
            [
              -53.9167026,
              -24.165647
            ],
            [
              -53.9191963,
              -24.1648127
            ],
            [
              -53.9221418,
              -24.1638344
            ],
            [
              -53.9230168,
              -24.1630023
            ],
            [
              -53.9242739,
              -24.1614394
            ],
            [
              -53.9249148,
              -24.1598876
            ],
            [
              -53.9249702,
              -24.1587406
            ],
            [
              -53.9245635,
              -24.1575937
            ],
            [
              -53.9235036,
              -24.1563117
            ],
            [
              -53.9225239,
              -24.1553222
            ],
            [
              -53.9207615,
              -24.1543551
            ],
            [
              -53.9191778,
              -24.153686
            ],
            [
              -53.9172738,
              -24.1526908
            ],
            [
              -53.9147596,
              -24.1504417
            ],
            [
              -53.9123058,
              -24.1484175
            ],
            [
              -53.9111794,
              -24.1468037
            ],
            [
              -53.9107838,
              -24.1454261
            ],
            [
              -53.9102908,
              -24.1427271
            ],
            [
              -53.9100764,
              -24.1412144
            ],
            [
              -53.9100197,
              -24.1400842
            ],
            [
              -53.9101504,
              -24.1389483
            ],
            [
              -53.9105065,
              -24.1378911
            ],
            [
              -53.9112644,
              -24.1368227
            ],
            [
              -53.9124111,
              -24.1360428
            ],
            [
              -53.9136178,
              -24.1354387
            ],
            [
              -53.9157969,
              -24.1349489
            ],
            [
              -53.917667,
              -24.1347115
            ],
            [
              -53.9197323,
              -24.1342218
            ],
            [
              -53.9261313,
              -24.1317434
            ],
            [
              -53.9285897,
              -24.130489
            ],
            [
              -53.9289527,
              -24.1303038
            ],
            [
              -53.9293217,
              -24.1300679
            ],
            [
              -53.9343273,
              -24.1268681
            ],
            [
              -53.9381488,
              -24.1236327
            ],
            [
              -53.9407101,
              -24.1220372
            ],
            [
              -53.9431412,
              -24.1210947
            ],
            [
              -53.9468327,
              -24.1202413
            ],
            [
              -53.9502111,
              -24.119865
            ],
            [
              -53.9547494,
              -24.1197867
            ],
            [
              -53.958851,
              -24.1206639
            ],
            [
              -53.9588702,
              -24.1220133
            ],
            [
              -53.9588915,
              -24.1234085
            ],
            [
              -53.9588872,
              -24.1324251
            ],
            [
              -53.9591782,
              -24.1569625
            ],
            [
              -53.9591967,
              -24.1570516
            ],
            [
              -53.9596832,
              -24.1769736
            ],
            [
              -53.959944,
              -24.186957
            ],
            [
              -53.9599941,
              -24.1888714
            ],
            [
              -53.9602682,
              -24.1993631
            ],
            [
              -53.9603273,
              -24.2012936
            ],
            [
              -53.9603965,
              -24.2035529
            ],
            [
              -53.9604919,
              -24.2066664
            ],
            [
              -53.9605964,
              -24.2088577
            ],
            [
              -53.9605955,
              -24.2092313
            ],
            [
              -53.9605966,
              -24.2093185
            ],
            [
              -53.9606424,
              -24.2100944
            ],
            [
              -53.9606188,
              -24.2108099
            ],
            [
              -53.960622,
              -24.2108967
            ],
            [
              -53.9609604,
              -24.221957
            ],
            [
              -53.961112,
              -24.2253887
            ],
            [
              -53.9613539,
              -24.232733
            ],
            [
              -53.9613712,
              -24.233621
            ],
            [
              -53.9613773,
              -24.2339371
            ],
            [
              -53.9613972,
              -24.2345655
            ],
            [
              -53.9616046,
              -24.2411135
            ],
            [
              -53.9616025,
              -24.2412669
            ],
            [
              -53.9616263,
              -24.2418223
            ],
            [
              -53.9617485,
              -24.2448858
            ],
            [
              -53.9619475,
              -24.2500533
            ],
            [
              -53.9620057,
              -24.2516743
            ],
            [
              -53.9620163,
              -24.251969
            ],
            [
              -53.9620273,
              -24.2522759
            ],
            [
              -53.9622613,
              -24.2579525
            ],
            [
              -53.9623333,
              -24.2596983
            ],
            [
              -53.962481,
              -24.2632289
            ],
            [
              -53.9625317,
              -24.264442
            ],
            [
              -53.9625782,
              -24.2655526
            ],
            [
              -53.9626048,
              -24.2662322
            ],
            [
              -53.9626598,
              -24.2676359
            ],
            [
              -53.9631407,
              -24.2798243
            ],
            [
              -53.963199,
              -24.2817984
            ],
            [
              -53.9633652,
              -24.2861797
            ],
            [
              -53.9635938,
              -24.2920008
            ],
            [
              -53.9636565,
              -24.2932058
            ],
            [
              -53.9638316,
              -24.2989879
            ],
            [
              -53.9639895,
              -24.3035174
            ],
            [
              -53.9639989,
              -24.3038046
            ],
            [
              -53.9640605,
              -24.3060339
            ],
            [
              -53.9640753,
              -24.3064366
            ],
            [
              -53.9641085,
              -24.3073906
            ],
            [
              -53.9643281,
              -24.3133359
            ],
            [
              -53.9644669,
              -24.3167512
            ],
            [
              -53.9644495,
              -24.317014
            ],
            [
              -53.9645232,
              -24.3180577
            ],
            [
              -53.9645504,
              -24.320357
            ],
            [
              -53.9645516,
              -24.3209027
            ],
            [
              -53.9645527,
              -24.3214013
            ],
            [
              -53.9645594,
              -24.3216066
            ],
            [
              -53.9645648,
              -24.3216555
            ],
            [
              -53.9645863,
              -24.3217948
            ],
            [
              -53.9646044,
              -24.3218751
            ],
            [
              -53.964715,
              -24.3231709
            ],
            [
              -53.9647847,
              -24.3243934
            ],
            [
              -53.9665566,
              -24.3697489
            ]
          ]
        ]
      }
    }
  ]
}