{"type":"FeatureCollection","features":[{"type":"Feature","properties":{},"geometry":{"type":"Polygon","coordinates":[[[-49.38914,-25.4297876],[-49.3881583,-25.4308922],[-49.3883407,-25.4317013],[-49.388566,-25.4317788],[-49.3885391,-25.4322245],[-49.3883407,-25.4328785],[-49.3884694,-25.4332079],[-49.3889683,-25.4337408],[-49.3887993,-25.434141],[-49.3886116,-25.4342766],[-49.3882173,-25.4343028],[-49.3874582,-25.4346012],[-49.387772,-25.435262],[-49.3872195,-25.4356011],[-49.3868601,-25.4359983],[-49.3868279,-25.4362406],[-49.3865865,-25.4363956],[-49.3863987,-25.4369818],[-49.3866991,-25.4374953],[-49.3869781,-25.4376309],[-49.3867957,-25.4384351],[-49.3870103,-25.4393652],[-49.3868493,-25.439651],[-49.38655,-25.4398101],[-49.3864809,-25.4399625],[-49.3865363,-25.4403721],[-49.3869114,-25.4411984],[-49.3871563,-25.4425936],[-49.386921,-25.4427734],[-49.386885,-25.4431551],[-49.387001,-25.4434276],[-49.38674,-25.443521],[-49.386779,-25.4438999],[-49.3865041,-25.4444118],[-49.3866785,-25.4445069],[-49.3866923,-25.444595],[-49.3864002,-25.4448585],[-49.3863593,-25.4450474],[-49.3865318,-25.4452269],[-49.3865514,-25.4453919],[-49.3863735,-25.4455158],[-49.3860985,-25.4454256],[-49.385965,-25.4455059],[-49.3862148,-25.4461054],[-49.3863482,-25.4461991],[-49.3861455,-25.4467265],[-49.3857694,-25.4470698],[-49.3857113,-25.4474597],[-49.3854302,-25.4477639],[-49.3854382,-25.4481383],[-49.3853425,-25.4484472],[-49.3856153,-25.4485605],[-49.3856105,-25.4486721],[-49.3855013,-25.4488162],[-49.3849873,-25.4489474],[-49.3845866,-25.4491836],[-49.3843893,-25.4496416],[-49.3837103,-25.4543691],[-49.382423,-25.4567796],[-49.382394,-25.4570185],[-49.3826279,-25.4571315],[-49.3828597,-25.4574494],[-49.3828562,-25.4576744],[-49.3825302,-25.458294],[-49.382508,-25.4585821],[-49.3837754,-25.4623437],[-49.3838145,-25.4704942],[-49.3836842,-25.4736814],[-49.383072,-25.4789499],[-49.3817823,-25.4845828],[-49.381626,-25.488287],[-49.3806881,-25.4897568],[-49.3764413,-25.4916618],[-49.3730512,-25.493272],[-49.372928,-25.4934408],[-49.3718298,-25.4967297],[-49.3717646,-25.5014328],[-49.3707355,-25.5094749],[-49.3713478,-25.5124376],[-49.3720382,-25.5134369],[-49.3702192,-25.5159459],[-49.3653487,-25.5178171],[-49.3627909,-25.5176605],[-49.3604882,-25.5180559],[-49.3592739,-25.5189023],[-49.3586858,-25.5204925],[-49.3509431,-25.5209777],[-49.3509036,-25.520559],[-49.3504346,-25.5204966],[-49.349709,-25.5201002],[-49.3488334,-25.5194478],[-49.3487968,-25.5193155],[-49.3489885,-25.5184851],[-49.3478576,-25.5169891],[-49.3441695,-25.5160293],[-49.3435764,-25.5159776],[-49.3427831,-25.5152749],[-49.3386612,-25.5142985],[-49.3385105,-25.5147547],[-49.337907,-25.5157612],[-49.3379585,-25.5161408],[-49.3389971,-25.5168844],[-49.3397953,-25.5178836],[-49.340173,-25.5185032],[-49.3401687,-25.5187637],[-49.3399498,-25.5195334],[-49.3397352,-25.51982],[-49.3390781,-25.5203455],[-49.3388183,-25.521044],[-49.3390801,-25.521924],[-49.3394373,-25.5222467],[-49.3395378,-25.5234837],[-49.3397095,-25.5240258],[-49.3398125,-25.5250869],[-49.3400442,-25.5256911],[-49.3401567,-25.5267056],[-49.3404219,-25.527883],[-49.340851,-25.5282393],[-49.341469,-25.5285413],[-49.342499,-25.5296721],[-49.3438379,-25.53095],[-49.3440868,-25.5313605],[-49.3441469,-25.5316858],[-49.3439323,-25.5319723],[-49.3430205,-25.5324972],[-49.3425715,-25.5331897],[-49.3408596,-25.5352329],[-49.3405678,-25.5358447],[-49.340645,-25.5362242],[-49.3408768,-25.5367276],[-49.3413798,-25.537257],[-49.342365,-25.5375115],[-49.3428397,-25.5376986],[-49.3430349,-25.5378854],[-49.3435291,-25.5389439],[-49.3457605,-25.5412116],[-49.346121,-25.5417847],[-49.3462729,-25.5426075],[-49.3462002,-25.5431103],[-49.345882,-25.5438356],[-49.3457863,-25.5443171],[-49.3457375,-25.5448799],[-49.3458308,-25.5454492],[-49.3456919,-25.547949],[-49.3455284,-25.5486981],[-49.3453281,-25.549073],[-49.3447827,-25.5496232],[-49.3443186,-25.5503728],[-49.3426105,-25.5534238],[-49.3424904,-25.5538574],[-49.3420612,-25.5546472],[-49.3420076,-25.5549686],[-49.3420942,-25.5552762],[-49.3423445,-25.5555377],[-49.3425676,-25.5571096],[-49.3429882,-25.5577988],[-49.3435118,-25.5583098],[-49.3439495,-25.5591461],[-49.3443357,-25.5601295],[-49.3444216,-25.5605166],[-49.3445932,-25.5637996],[-49.3447735,-25.5644965],[-49.3451168,-25.5688711],[-49.3441126,-25.571488],[-49.3432629,-25.572448],[-49.342808,-25.5736094],[-49.3426363,-25.5743913],[-49.342765,-25.5749333],[-49.3432028,-25.5752972],[-49.343486,-25.5761411],[-49.3436491,-25.5769462],[-49.3436405,-25.5773333],[-49.3432886,-25.5779604],[-49.3428423,-25.5784636],[-49.3426878,-25.5798881],[-49.3427908,-25.5803139],[-49.3432131,-25.5805833],[-49.3436101,-25.5805175],[-49.3441469,-25.5802443],[-49.3445761,-25.5801668],[-49.346121,-25.5809565],[-49.3462326,-25.5811578],[-49.3461725,-25.5815681],[-49.3456232,-25.5822881],[-49.3454912,-25.5826181],[-49.3456949,-25.5833762],[-49.3454344,-25.5844015],[-49.34534,-25.5857253],[-49.3458025,-25.5875435],[-49.3458785,-25.5889701],[-49.3462019,-25.5899725],[-49.3465931,-25.5903778],[-49.3477107,-25.5910936],[-49.3485346,-25.5922967],[-49.3497087,-25.5934974],[-49.3503525,-25.5944883],[-49.3505756,-25.5950456],[-49.3507215,-25.5967254],[-49.3523352,-25.6049302],[-49.3525154,-25.6051934],[-49.3531763,-25.6055107],[-49.3539745,-25.6057739],[-49.3555023,-25.6067259],[-49.3571588,-25.6074767],[-49.357485,-25.6079721],[-49.3573648,-25.6085061],[-49.3571417,-25.6089163],[-49.3570473,-25.6092879],[-49.3573477,-25.6104566],[-49.3573906,-25.6125463],[-49.3575794,-25.6137072],[-49.3576738,-25.6162768],[-49.3578112,-25.6168572],[-49.3581116,-25.6173448],[-49.3587467,-25.6176853],[-49.3593132,-25.6181807],[-49.3596823,-25.6188075],[-49.3596651,-25.6195273],[-49.359502,-25.6203322],[-49.3595449,-25.6220812],[-49.3593819,-25.6248982],[-49.3594591,-25.6268639],[-49.3599054,-25.6273127],[-49.3616392,-25.6280556],[-49.3631842,-25.6294795],[-49.3634417,-25.6305707],[-49.3640511,-25.6319249],[-49.3654844,-25.6329541],[-49.3657934,-25.6333642],[-49.3658621,-25.6337202],[-49.3657333,-25.6340375],[-49.3653728,-25.6343083],[-49.364197,-25.6347726],[-49.3638708,-25.6352756],[-49.3638107,-25.6355928],[-49.3640682,-25.6366375],[-49.3640425,-25.6377131],[-49.3642141,-25.6385952],[-49.3649668,-25.640065],[-49.3657252,-25.6411293],[-49.3650909,-25.6412168],[-49.3590294,-25.643374],[-49.3576752,-25.6435043],[-49.3569271,-25.6433255],[-49.354526,-25.6419096],[-49.3537666,-25.6416035],[-49.3530007,-25.6410318],[-49.3489483,-25.6385679],[-49.3408093,-25.6338126],[-49.3390134,-25.6325832],[-49.3380652,-25.6320765],[-49.3370194,-25.631863],[-49.333961,-25.6316621],[-49.3329345,-25.631507],[-49.3306788,-25.6309042],[-49.329721,-25.6308042],[-49.3287576,-25.6309838],[-49.3254538,-25.6306407],[-49.3245968,-25.6304116],[-49.3238601,-25.6300641],[-49.3194288,-25.6258674],[-49.3170937,-25.6239869],[-49.3162098,-25.6235108],[-49.3158906,-25.6231628],[-49.3154919,-25.6230942],[-49.3148599,-25.6227967],[-49.3084565,-25.6190411],[-49.3064192,-25.6179621],[-49.3054259,-25.6173215],[-49.3034816,-25.6164974],[-49.3020296,-25.6160226],[-49.3015561,-25.6161581],[-49.3011882,-25.6160492],[-49.3006691,-25.6160343],[-49.3000542,-25.6158501],[-49.2994576,-25.6158641],[-49.2961395,-25.6151612],[-49.2950204,-25.6146408],[-49.292802,-25.614036],[-49.290583,-25.6135563],[-49.2892957,-25.6133776],[-49.2873962,-25.6128578],[-49.2864884,-25.6128175],[-49.2841926,-25.612244],[-49.2830633,-25.6118151],[-49.2826388,-25.6117713],[-49.2824155,-25.6116688],[-49.2812021,-25.6115568],[-49.2802708,-25.6111983],[-49.2794571,-25.6106592],[-49.2781226,-25.6102195],[-49.2727074,-25.6081337],[-49.2700871,-25.6099534],[-49.2694949,-25.6095293],[-49.2696191,-25.6086753],[-49.2703605,-25.607915],[-49.2702958,-25.6075769],[-49.2700209,-25.6074559],[-49.2696179,-25.6074273],[-49.2680957,-25.6075001],[-49.2669418,-25.606639],[-49.2671086,-25.6061263],[-49.2677162,-25.6059561],[-49.2691234,-25.6062092],[-49.2696926,-25.6059167],[-49.2711566,-25.6040092],[-49.2713934,-25.6033745],[-49.2711977,-25.6024469],[-49.270578,-25.6021229],[-49.270106,-25.6021874],[-49.2692905,-25.6032106],[-49.2683232,-25.6034894],[-49.2670029,-25.60197],[-49.2645595,-25.6003227],[-49.2626014,-25.5997761],[-49.261457,-25.599301],[-49.2605892,-25.5979571],[-49.2599111,-25.5974937],[-49.2591387,-25.5973317],[-49.2584563,-25.5975308],[-49.2578876,-25.597392],[-49.2576685,-25.5970133],[-49.2579203,-25.5965328],[-49.2581613,-25.5957466],[-49.2579986,-25.5948431],[-49.2586817,-25.5946213],[-49.258863,-25.5943062],[-49.2581747,-25.5933483],[-49.2576063,-25.5929302],[-49.2553128,-25.5928508],[-49.2544425,-25.5928901],[-49.2538234,-25.592815],[-49.253632,-25.5925251],[-49.2538726,-25.5922588],[-49.2556649,-25.5921283],[-49.2559188,-25.591875],[-49.2558798,-25.5914931],[-49.2556739,-25.5912179],[-49.2549297,-25.5906574],[-49.2542221,-25.59036],[-49.2534831,-25.590389],[-49.2531065,-25.5908443],[-49.2530375,-25.5914793],[-49.2527053,-25.5922045],[-49.251595,-25.5923866],[-49.2507827,-25.5931119],[-49.250309,-25.5929516],[-49.2495621,-25.5915151],[-49.2499063,-25.5907147],[-49.2505211,-25.5901158],[-49.2501437,-25.5889169],[-49.2503796,-25.5881701],[-49.2504335,-25.5876182],[-49.2500881,-25.5872282],[-49.2491759,-25.5871428],[-49.2477816,-25.5865538],[-49.2467503,-25.5863835],[-49.2458586,-25.586464],[-49.2445261,-25.5863268],[-49.2431179,-25.5856636],[-49.2429412,-25.5852415],[-49.2432377,-25.5846736],[-49.2438215,-25.584561],[-49.2450729,-25.5847852],[-49.2453005,-25.5846172],[-49.2452069,-25.5843141],[-49.2443708,-25.583967],[-49.2440892,-25.583658],[-49.244011,-25.5831213],[-49.2437092,-25.5830289],[-49.2434074,-25.5831389],[-49.2432455,-25.5835233],[-49.2427091,-25.5839672],[-49.2419634,-25.5838243],[-49.241429,-25.5835392],[-49.2418105,-25.5820841],[-49.2419276,-25.580994],[-49.242467,-25.5807349],[-49.243686,-25.5808757],[-49.2442269,-25.5812234],[-49.2451122,-25.5808127],[-49.2458048,-25.5792016],[-49.246034,-25.5774929],[-49.245746,-25.5771913],[-49.2453091,-25.5772116],[-49.2441398,-25.5776241],[-49.2449058,-25.5762134],[-49.245117,-25.5749348],[-49.2450339,-25.5746428],[-49.2435335,-25.5724189],[-49.2421255,-25.5706295],[-49.2405027,-25.5681749],[-49.2397453,-25.5675006],[-49.2394677,-25.5668817],[-49.2390977,-25.5663519],[-49.2382148,-25.5654202],[-49.2374852,-25.563787],[-49.237099,-25.5635208],[-49.2366377,-25.5633611],[-49.2357579,-25.5632111],[-49.2278668,-25.5622819],[-49.2256215,-25.5619488],[-49.2245855,-25.5619902],[-49.2242395,-25.5620828],[-49.2235285,-25.5619499],[-49.2232868,-25.5621507],[-49.2225465,-25.5614829],[-49.222171,-25.5609602],[-49.2219135,-25.5603505],[-49.2215138,-25.5581915],[-49.2217735,-25.5570419],[-49.2222267,-25.5561346],[-49.2231932,-25.5547635],[-49.2239734,-25.5530858],[-49.224787,-25.5533011],[-49.2252542,-25.55268],[-49.2253467,-25.5523071],[-49.2253301,-25.5516174],[-49.2250323,-25.5509476],[-49.2235872,-25.5491516],[-49.2229332,-25.548566],[-49.2227974,-25.5481765],[-49.2227782,-25.5478312],[-49.2229028,-25.5474564],[-49.2234198,-25.5465963],[-49.2246075,-25.5451978],[-49.2254265,-25.544571],[-49.2256158,-25.54424],[-49.2256822,-25.543723],[-49.225554,-25.5436001],[-49.224836,-25.5432977],[-49.223696,-25.5431263],[-49.2234797,-25.5428282],[-49.2234021,-25.5423189],[-49.2235307,-25.5419671],[-49.2244135,-25.5405753],[-49.2258004,-25.5389681],[-49.2259484,-25.5385204],[-49.2258574,-25.5379558],[-49.2237629,-25.5334885],[-49.2219782,-25.5349144],[-49.2213531,-25.5343981],[-49.2203789,-25.5340737],[-49.218726,-25.5332273],[-49.2184164,-25.5329648],[-49.2182188,-25.5326532],[-49.2165223,-25.5296118],[-49.2167468,-25.5291521],[-49.2172891,-25.5288994],[-49.2174401,-25.5285443],[-49.2170434,-25.5282302],[-49.2167449,-25.5281142],[-49.2175571,-25.5261138],[-49.2179347,-25.5260639],[-49.2181163,-25.526169],[-49.2183569,-25.5260828],[-49.2184803,-25.5259315],[-49.2183065,-25.5256447],[-49.218079,-25.5256215],[-49.2176064,-25.5257764],[-49.2174758,-25.5257004],[-49.2173953,-25.5255513],[-49.2174522,-25.5252153],[-49.2173849,-25.5251001],[-49.2170646,-25.525021],[-49.2169922,-25.5248922],[-49.2170542,-25.5240179],[-49.2169756,-25.523673],[-49.2171,-25.5226223],[-49.2169453,-25.5216732],[-49.2160915,-25.5206685],[-49.2159885,-25.5203594],[-49.2159982,-25.5200254],[-49.216201,-25.5196332],[-49.2163233,-25.5186006],[-49.2161371,-25.5183925],[-49.2159242,-25.5183833],[-49.215753,-25.518559],[-49.2152869,-25.5203028],[-49.2149156,-25.5205066],[-49.2145825,-25.5203894],[-49.2142987,-25.5201193],[-49.2138234,-25.5187473],[-49.2136373,-25.5174833],[-49.2132339,-25.5171565],[-49.212728,-25.517006],[-49.2123091,-25.5171967],[-49.2111563,-25.5174702],[-49.2106949,-25.5177675],[-49.2102625,-25.5178435],[-49.2096194,-25.5177772],[-49.2094085,-25.5175927],[-49.2090926,-25.5168908],[-49.208819,-25.5157957],[-49.2087465,-25.5156622],[-49.2081693,-25.5152167],[-49.207914,-25.5148107],[-49.2075106,-25.5115503],[-49.2075852,-25.5108391],[-49.2077713,-25.5107772],[-49.2083716,-25.5109558],[-49.2085449,-25.5108067],[-49.2088029,-25.5102127],[-49.2086779,-25.5100079],[-49.2078604,-25.5096535],[-49.2066689,-25.5099222],[-49.2064436,-25.5084635],[-49.2051695,-25.5074116],[-49.2038092,-25.5100471],[-49.2035832,-25.5099663],[-49.2026126,-25.5120073],[-49.2017183,-25.5136346],[-49.2013174,-25.5135068],[-49.2011538,-25.5129877],[-49.2010269,-25.5121243],[-49.2011546,-25.5117614],[-49.2014429,-25.5115431],[-49.2014877,-25.5112574],[-49.2013439,-25.5109638],[-49.2010304,-25.510782],[-49.2010808,-25.5106053],[-49.2012557,-25.5105063],[-49.2013927,-25.510784],[-49.2018919,-25.5108873],[-49.2019831,-25.5106373],[-49.2018069,-25.5104291],[-49.2018466,-25.5101434],[-49.202147,-25.5099169],[-49.2022948,-25.5095361],[-49.2020601,-25.5092899],[-49.2019863,-25.5084596],[-49.2012047,-25.5082337],[-49.2011066,-25.5079844],[-49.2011685,-25.5077646],[-49.201503,-25.5077162],[-49.2022317,-25.5079558],[-49.2025461,-25.5077684],[-49.20243,-25.5073751],[-49.2018326,-25.5072629],[-49.2017173,-25.5070107],[-49.2017892,-25.5066704],[-49.2023425,-25.5066803],[-49.2026346,-25.5065169],[-49.2025646,-25.5063085],[-49.2017747,-25.5056386],[-49.2010819,-25.5054435],[-49.1995691,-25.5058686],[-49.1990254,-25.5055149],[-49.1985692,-25.5053852],[-49.1982779,-25.5055551],[-49.1972992,-25.5054244],[-49.1971173,-25.5053171],[-49.1971141,-25.5045517],[-49.1972723,-25.5042847],[-49.1976326,-25.5039867],[-49.1982513,-25.5038947],[-49.1986311,-25.503662],[-49.1987602,-25.5034333],[-49.1986059,-25.5032021],[-49.1983332,-25.5031338],[-49.1977348,-25.503288],[-49.1974499,-25.5032439],[-49.1974872,-25.5028343],[-49.1972037,-25.5024792],[-49.1973574,-25.5022812],[-49.1973713,-25.5019921],[-49.1967072,-25.500847],[-49.196623,-25.5001634],[-49.1980697,-25.4994835],[-49.1944,-25.4907011],[-49.1940486,-25.4897109],[-49.1937187,-25.4882751],[-49.1933969,-25.4876529],[-49.1931474,-25.4873454],[-49.1906174,-25.4846375],[-49.1902084,-25.4842904],[-49.1899012,-25.4839125],[-49.1897969,-25.4836394],[-49.1876762,-25.4814024],[-49.1882399,-25.4813686],[-49.1884075,-25.4812714],[-49.1883595,-25.4811186],[-49.1880133,-25.4810113],[-49.187848,-25.4808518],[-49.1880555,-25.4800931],[-49.1875653,-25.4800907],[-49.1869166,-25.4799574],[-49.1867615,-25.4797778],[-49.1868097,-25.4794127],[-49.1862643,-25.4792478],[-49.1861122,-25.4787141],[-49.185739,-25.4786584],[-49.1847542,-25.4779143],[-49.1843182,-25.476933],[-49.1844152,-25.4736236],[-49.1847001,-25.4716963],[-49.1853334,-25.4715515],[-49.1855909,-25.4710866],[-49.1887151,-25.467677],[-49.1895309,-25.4671119],[-49.1905948,-25.4645154],[-49.1924488,-25.4588893],[-49.1927256,-25.4583914],[-49.1934208,-25.4575428],[-49.1965809,-25.4530626],[-49.1972701,-25.4521807],[-49.1976991,-25.4518285],[-49.1980822,-25.4513702],[-49.1983812,-25.4508345],[-49.1986709,-25.4496119],[-49.1991504,-25.4456418],[-49.2001099,-25.4446633],[-49.2004261,-25.4440878],[-49.2005494,-25.4434836],[-49.2004734,-25.4427613],[-49.2005438,-25.4421882],[-49.2022922,-25.4378881],[-49.2032631,-25.4357047],[-49.2033887,-25.43516],[-49.2032724,-25.4347749],[-49.2027462,-25.4340343],[-49.202746,-25.4332624],[-49.203108,-25.4316636],[-49.2030262,-25.4307236],[-49.2015199,-25.4290329],[-49.198494,-25.4262412],[-49.1981775,-25.425747],[-49.1979522,-25.4252044],[-49.1978932,-25.4249137],[-49.1980005,-25.4229079],[-49.198258,-25.4195649],[-49.1980882,-25.4181002],[-49.1979469,-25.4176947],[-49.1973407,-25.4169727],[-49.1971851,-25.4166142],[-49.1971142,-25.4160939],[-49.1959915,-25.4156752],[-49.1955638,-25.4151934],[-49.1957055,-25.4143929],[-49.1958364,-25.4142505],[-49.1960934,-25.4142425],[-49.1968402,-25.4145003],[-49.1971694,-25.4144144],[-49.1974125,-25.4141123],[-49.1977618,-25.414251],[-49.1982473,-25.4134456],[-49.1984672,-25.4121471],[-49.1975016,-25.4105675],[-49.1972567,-25.4103623],[-49.1953022,-25.4073888],[-49.1948194,-25.4064827],[-49.1946389,-25.4056611],[-49.1947121,-25.4053197],[-49.1945297,-25.4015837],[-49.1940416,-25.4005321],[-49.1939021,-25.3998828],[-49.1932476,-25.3952404],[-49.1932817,-25.3941628],[-49.1931807,-25.3931274],[-49.193334,-25.3922049],[-49.1933402,-25.3907746],[-49.1947542,-25.3870756],[-49.1941869,-25.3847108],[-49.1941588,-25.3842293],[-49.1943055,-25.383486],[-49.1950059,-25.3825869],[-49.1951681,-25.3819372],[-49.1951842,-25.381501],[-49.1950083,-25.380141],[-49.1948419,-25.3798011],[-49.1948007,-25.3794592],[-49.1949383,-25.3785092],[-49.1952669,-25.3779429],[-49.1957875,-25.37749],[-49.1962826,-25.3772492],[-49.1970883,-25.3771143],[-49.1973512,-25.377169],[-49.198451,-25.3778956],[-49.1991359,-25.3786873],[-49.2016545,-25.3811993],[-49.2020929,-25.3817605],[-49.2024814,-25.3818966],[-49.2029812,-25.3817026],[-49.2033111,-25.381679],[-49.2036229,-25.3818299],[-49.2038885,-25.3821965],[-49.2041034,-25.3821449],[-49.205346,-25.3813907],[-49.2055406,-25.3811379],[-49.2057075,-25.3806209],[-49.2060137,-25.3787653],[-49.2057985,-25.3776039],[-49.2055529,-25.3771565],[-49.2055783,-25.375656],[-49.2056983,-25.3745713],[-49.2066755,-25.3731604],[-49.2074124,-25.3723818],[-49.2075063,-25.3721806],[-49.2072529,-25.3712368],[-49.2068234,-25.3703339],[-49.2073639,-25.3668318],[-49.2073962,-25.3661614],[-49.2078791,-25.365746],[-49.2109279,-25.363803],[-49.2115001,-25.3633321],[-49.2124689,-25.3618034],[-49.2131468,-25.3615194],[-49.2153343,-25.3615871],[-49.2159766,-25.3614564],[-49.216733,-25.3615364],[-49.2172909,-25.3617109],[-49.2176771,-25.3620041],[-49.2186266,-25.3624986],[-49.2188573,-25.3624599],[-49.2189203,-25.3637759],[-49.2191295,-25.3638546],[-49.2199516,-25.3636983],[-49.2204237,-25.3637783],[-49.2207536,-25.3640279],[-49.2211935,-25.3640352],[-49.2216092,-25.3641782],[-49.2218211,-25.3641127],[-49.222371,-25.3636523],[-49.2224568,-25.363359],[-49.2225512,-25.3627041],[-49.2226419,-25.3610223],[-49.2225963,-25.3608311],[-49.2227599,-25.3596238],[-49.2231273,-25.3592775],[-49.2242405,-25.3589937],[-49.2245027,-25.3585624],[-49.2240608,-25.3574473],[-49.2237126,-25.3569599],[-49.2236745,-25.3567082],[-49.2237737,-25.3564198],[-49.2241573,-25.3560199],[-49.2275154,-25.3538191],[-49.2278802,-25.3535088],[-49.2287278,-25.3530531],[-49.2289316,-25.3527235],[-49.2290497,-25.3523259],[-49.2289209,-25.3517927],[-49.2288812,-25.3511474],[-49.2291999,-25.3503577],[-49.2297373,-25.3497369],[-49.2301814,-25.3497802],[-49.2307969,-25.350272],[-49.2311989,-25.3504265],[-49.2313366,-25.3503928],[-49.2319201,-25.349889],[-49.2321831,-25.3498819],[-49.2324017,-25.3500571],[-49.232717,-25.3500916],[-49.2328529,-25.3498523],[-49.2332087,-25.3498248],[-49.2336195,-25.3501345],[-49.2342537,-25.3504007],[-49.2345958,-25.3507926],[-49.235601,-25.3505456],[-49.23581,-25.3506631],[-49.2362005,-25.3511513],[-49.2365382,-25.3511528],[-49.2366873,-25.3510306],[-49.2372329,-25.3512411],[-49.2375758,-25.3510778],[-49.2378525,-25.350756],[-49.2378577,-25.3506201],[-49.2380625,-25.3505543],[-49.2388161,-25.350665],[-49.2390557,-25.3503513],[-49.2392726,-25.3503069],[-49.2394016,-25.3503689],[-49.2394988,-25.3506395],[-49.2396264,-25.3507334],[-49.2396778,-25.3510012],[-49.2399035,-25.3511819],[-49.2402019,-25.3511289],[-49.2404363,-25.3511841],[-49.2407607,-25.3510095],[-49.2410675,-25.3512446],[-49.2414306,-25.3512911],[-49.241604,-25.3511826],[-49.2415476,-25.3508973],[-49.2416065,-25.3505454],[-49.2420277,-25.3497096],[-49.2421474,-25.3496322],[-49.2425648,-25.3497269],[-49.2427499,-25.3494299],[-49.2430961,-25.3492754],[-49.2432437,-25.3486048],[-49.2435357,-25.3485661],[-49.2437562,-25.3487371],[-49.2439305,-25.3485574],[-49.2442836,-25.3484028],[-49.2444374,-25.3484204],[-49.2448191,-25.3487269],[-49.2448874,-25.3490624],[-49.2454108,-25.3493592],[-49.2455214,-25.34926],[-49.2454613,-25.3490005],[-49.2457395,-25.3487759],[-49.2460783,-25.3489529],[-49.246266,-25.3487572],[-49.2464835,-25.3487389],[-49.2466729,-25.3486222],[-49.2471725,-25.3486486],[-49.2473293,-25.3488538],[-49.2476037,-25.3488421],[-49.2480055,-25.3490824],[-49.2481758,-25.3490752],[-49.248439,-25.3490362],[-49.249223,-25.3484482],[-49.249391,-25.3483957],[-49.2499215,-25.3485434],[-49.2501997,-25.3487761],[-49.2505791,-25.3489158],[-49.2510059,-25.3488591],[-49.2510532,-25.3487319],[-49.2509948,-25.3484608],[-49.2510535,-25.3484164],[-49.2516564,-25.3486248],[-49.2518112,-25.3485667],[-49.2520346,-25.348274],[-49.2521802,-25.3482454],[-49.2528222,-25.3484846],[-49.2534662,-25.3483471],[-49.2539034,-25.3480274],[-49.2543242,-25.3479232],[-49.2546748,-25.3479571],[-49.255201,-25.3482506],[-49.2560583,-25.3482005],[-49.2565314,-25.3480149],[-49.2570346,-25.3477008],[-49.2574425,-25.347616],[-49.2581037,-25.3476066],[-49.2592209,-25.3478664],[-49.2594549,-25.3481381],[-49.2596403,-25.3481832],[-49.2605983,-25.3475699],[-49.2615215,-25.3472765],[-49.2627918,-25.3470004],[-49.2632195,-25.3469887],[-49.2637292,-25.3472477],[-49.2645519,-25.3481972],[-49.273414,-25.3450768],[-49.2738728,-25.3452275],[-49.2740918,-25.346255],[-49.2746197,-25.34658],[-49.274956,-25.3472081],[-49.275,-25.3475304],[-49.2752817,-25.3480904],[-49.2758329,-25.3483116],[-49.2764142,-25.3490188],[-49.2772754,-25.3493499],[-49.2775456,-25.3495326],[-49.2776721,-25.3497749],[-49.2777687,-25.3503524],[-49.2780489,-25.3507027],[-49.2782781,-25.3507522],[-49.2787031,-25.3505703],[-49.2794917,-25.3509959],[-49.279772,-25.3510024],[-49.2798939,-25.3511624],[-49.2798626,-25.351293],[-49.280191,-25.3516379],[-49.2800114,-25.3519829],[-49.2802962,-25.3523404],[-49.2800226,-25.352738],[-49.2803445,-25.3532906],[-49.2812267,-25.3538408],[-49.2818841,-25.3541293],[-49.2819914,-25.3543038],[-49.2818894,-25.3544783],[-49.2815139,-25.354677],[-49.2813208,-25.3549],[-49.2812672,-25.3552588],[-49.2814249,-25.3559087],[-49.281586,-25.3572874],[-49.2816749,-25.3588945],[-49.2818787,-25.3594568],[-49.2820718,-25.3596894],[-49.2820099,-25.3602154],[-49.2821737,-25.3604796],[-49.2820504,-25.3608528],[-49.2821386,-25.3610298],[-49.2823669,-25.3611922],[-49.2823615,-25.3613327],[-49.2821952,-25.3615169],[-49.2819645,-25.3614588],[-49.2819592,-25.3615363],[-49.2820099,-25.3616842],[-49.282281,-25.3618805],[-49.2826619,-25.3619968],[-49.2827662,-25.3622756],[-49.2835309,-25.3625397],[-49.2836031,-25.3626827],[-49.2837402,-25.3627482],[-49.2839547,-25.3626949],[-49.2843195,-25.3627627],[-49.2842176,-25.3631747],[-49.2839816,-25.3632959],[-49.2837777,-25.3633492],[-49.2836329,-25.3632911],[-49.2833861,-25.3630148],[-49.2827692,-25.3634365],[-49.2820557,-25.3635625],[-49.2815568,-25.3637807],[-49.2813798,-25.3639794],[-49.2813584,-25.36412],[-49.2814013,-25.3642315],[-49.2818519,-25.3641054],[-49.2820289,-25.3641539],[-49.2819592,-25.3642751],[-49.2820412,-25.364414],[-49.2826321,-25.3646023],[-49.2827048,-25.3647307],[-49.2825439,-25.3649779],[-49.2823508,-25.3659086],[-49.2821118,-25.3663279],[-49.2824902,-25.3667132],[-49.283528,-25.3672295],[-49.283649,-25.3673579],[-49.2836597,-25.3676439],[-49.2834904,-25.3683298],[-49.2836543,-25.3684388],[-49.2838421,-25.368434],[-49.2844858,-25.3678911],[-49.2845716,-25.3676294],[-49.2847487,-25.3674743],[-49.2855128,-25.3674767],[-49.285607,-25.3675421],[-49.2857464,-25.3678233],[-49.2857947,-25.3682013],[-49.2855855,-25.3689429],[-49.2856874,-25.3693404],[-49.2864033,-25.3697112],[-49.2869237,-25.3703026],[-49.2875757,-25.371667],[-49.2874845,-25.372142],[-49.286712,-25.3728593],[-49.2861702,-25.3731744],[-49.2858913,-25.3735864],[-49.2858615,-25.373836],[-49.2859634,-25.3742189],[-49.2862131,-25.3746285],[-49.2862292,-25.3749823],[-49.2864277,-25.3755494],[-49.2864277,-25.3760098],[-49.2863419,-25.3762134],[-49.2858323,-25.3766254],[-49.2849847,-25.3769065],[-49.2848774,-25.3771343],[-49.2852392,-25.3774905],[-49.2855665,-25.3776892],[-49.2860607,-25.3786412],[-49.2862561,-25.3787967],[-49.2865322,-25.3788751],[-49.2869559,-25.3788397],[-49.2876321,-25.3781308],[-49.2886993,-25.377413],[-49.2907376,-25.3769271],[-49.2922566,-25.3760785],[-49.2926934,-25.3757045],[-49.2931762,-25.3757529],[-49.2934927,-25.3762328],[-49.2936625,-25.3763276],[-49.2940154,-25.3761829],[-49.2944481,-25.3761306],[-49.2951448,-25.3758042],[-49.2955094,-25.3758644],[-49.2956871,-25.3761214],[-49.2957186,-25.3763491],[-49.2957347,-25.3774881],[-49.2956435,-25.3778613],[-49.2958439,-25.3787697],[-49.2959815,-25.3788355],[-49.2970007,-25.378787],[-49.2975184,-25.3784327],[-49.2980066,-25.3782854],[-49.2981621,-25.378392],[-49.2986825,-25.3784647],[-49.2988044,-25.3785908],[-49.2989239,-25.3792014],[-49.2990526,-25.3793662],[-49.2993535,-25.3792112],[-49.2993535,-25.37887],[-49.2995202,-25.3786727],[-49.2999087,-25.3786396],[-49.3001645,-25.3787212],[-49.300332,-25.3791879],[-49.3003234,-25.3795524],[-49.3012504,-25.3807699],[-49.3015679,-25.38146],[-49.3020829,-25.3818012],[-49.3022529,-25.3820161],[-49.3025035,-25.3826077],[-49.3028476,-25.3829648],[-49.302746,-25.3832593],[-49.3024051,-25.3834579],[-49.3022086,-25.3840034],[-49.3019291,-25.3841555],[-49.3017502,-25.3845696],[-49.3013619,-25.3846936],[-49.3007361,-25.3846839],[-49.3004764,-25.3850368],[-49.3004951,-25.3852752],[-49.300598,-25.3854225],[-49.3022026,-25.3859157],[-49.3023305,-25.386017],[-49.3023939,-25.3862968],[-49.3026542,-25.3865882],[-49.3027281,-25.3869522],[-49.303601,-25.3866286],[-49.3037928,-25.3863281],[-49.3037854,-25.3855818],[-49.3040556,-25.3849715],[-49.3039282,-25.3847316],[-49.3034904,-25.3843241],[-49.3034354,-25.3841533],[-49.3049842,-25.3843372],[-49.3075187,-25.3839429],[-49.3084727,-25.383911],[-49.3094006,-25.3836791],[-49.3104045,-25.3836527],[-49.3116038,-25.3827329],[-49.3120345,-25.3824944],[-49.3125951,-25.3815349],[-49.3130913,-25.3808927],[-49.3145464,-25.3800852],[-49.3154152,-25.3793643],[-49.3155911,-25.379066],[-49.3157936,-25.3784249],[-49.3160455,-25.378028],[-49.3171103,-25.377205],[-49.3190906,-25.3750286],[-49.319605,-25.373793],[-49.319745,-25.3726205],[-49.3199813,-25.3722294],[-49.3216003,-25.371203],[-49.3219953,-25.370791],[-49.3226023,-25.3699342],[-49.323258,-25.369343],[-49.3236611,-25.3691852],[-49.324493,-25.3690293],[-49.3259814,-25.3685199],[-49.3271105,-25.3671538],[-49.3278846,-25.364311],[-49.3287115,-25.3624959],[-49.3288856,-25.3616419],[-49.328932,-25.3607574],[-49.329131,-25.3602443],[-49.3295524,-25.3598586],[-49.3311418,-25.3588626],[-49.332881,-25.3575681],[-49.3332711,-25.3570474],[-49.333695,-25.3559043],[-49.3343948,-25.3552289],[-49.3352697,-25.3549711],[-49.3353477,-25.354655],[-49.3351919,-25.354115],[-49.3351986,-25.3538582],[-49.335676,-25.3533553],[-49.3358012,-25.3530096],[-49.3356916,-25.3526355],[-49.3352993,-25.352281],[-49.3353135,-25.3519851],[-49.3356052,-25.3519299],[-49.336306,-25.3523252],[-49.3366507,-25.3523781],[-49.3371018,-25.3522407],[-49.3373464,-25.3518383],[-49.3380488,-25.3519807],[-49.3384122,-25.3516977],[-49.3388217,-25.3515537],[-49.3389358,-25.3511351],[-49.3393021,-25.3507584],[-49.3398559,-25.350583],[-49.3400572,-25.3501577],[-49.3404323,-25.3498581],[-49.3404828,-25.3497256],[-49.3403941,-25.3494792],[-49.3400834,-25.3491913],[-49.340054,-25.3489952],[-49.3407585,-25.348616],[-49.3411915,-25.3482817],[-49.3412478,-25.3479458],[-49.3410068,-25.34749],[-49.3410084,-25.3473155],[-49.3415063,-25.3467155],[-49.3417043,-25.3468438],[-49.3417027,-25.3472968],[-49.3414025,-25.3476633],[-49.3412411,-25.3483227],[-49.3401465,-25.3490901],[-49.3401964,-25.349217],[-49.3405798,-25.3494723],[-49.3407397,-25.3497118],[-49.3407917,-25.3502821],[-49.3405636,-25.3509378],[-49.3412448,-25.3516033],[-49.3412989,-25.3520755],[-49.3411606,-25.3527958],[-49.3410909,-25.3529848],[-49.3408924,-25.3531303],[-49.3405222,-25.3536732],[-49.3405115,-25.3544634],[-49.3387922,-25.3555813],[-49.3386018,-25.3557917],[-49.3384355,-25.3563346],[-49.3384784,-25.3565624],[-49.3386393,-25.3567176],[-49.3389451,-25.3567951],[-49.3392991,-25.3567757],[-49.3394333,-25.3569018],[-49.3394064,-25.3572653],[-49.3395888,-25.3576677],[-49.3395888,-25.3580361],[-49.3396586,-25.358167],[-49.3409836,-25.3582979],[-49.3411338,-25.3583803],[-49.3413001,-25.3586323],[-49.3413215,-25.3589523],[-49.3410748,-25.3591898],[-49.3413349,-25.3594109],[-49.3414556,-25.3593643],[-49.3416649,-25.3594564],[-49.342043,-25.359755],[-49.3425822,-25.3596649],[-49.3431508,-25.3597473],[-49.3431937,-25.3598781],[-49.3431079,-25.3601448],[-49.3426787,-25.3605423],[-49.3428531,-25.3607584],[-49.3430328,-25.3607895],[-49.3438267,-25.3605132],[-49.3451946,-25.3602563],[-49.34601,-25.3603096],[-49.3460261,-25.3604598],[-49.3459162,-25.3606615],[-49.3455272,-25.360804],[-49.3453824,-25.3609494],[-49.3453636,-25.3611947],[-49.3445241,-25.361662],[-49.3438106,-25.3621322],[-49.3436255,-25.3623387],[-49.3436121,-25.3630096],[-49.3440788,-25.3634701],[-49.3443363,-25.363979],[-49.3440735,-25.3642069],[-49.344331,-25.3642893],[-49.3443149,-25.3644492],[-49.3441593,-25.3645947],[-49.3439876,-25.3645947],[-49.3439635,-25.3648302],[-49.3444007,-25.3650261],[-49.3446582,-25.365346],[-49.3448567,-25.3653654],[-49.3451946,-25.3650067],[-49.3458598,-25.3648709],[-49.3459939,-25.3648806],[-49.3461039,-25.3651405],[-49.345833,-25.3654623],[-49.3460154,-25.3656223],[-49.3460342,-25.3658724],[-49.3455594,-25.3661361],[-49.345546,-25.3663571],[-49.3457338,-25.366614],[-49.3456613,-25.3667856],[-49.3457043,-25.3670522],[-49.3455111,-25.3673043],[-49.3455111,-25.3674206],[-49.3456238,-25.3674691],[-49.3459188,-25.3674109],[-49.34601,-25.3674788],[-49.3458545,-25.3677066],[-49.345288,-25.3678736],[-49.3452295,-25.3681118],[-49.3453287,-25.3684191],[-49.3457016,-25.3686353],[-49.3460342,-25.3686741],[-49.3464124,-25.3685451],[-49.3468737,-25.3685548],[-49.3467771,-25.3689232],[-49.3461415,-25.3691782],[-49.3458545,-25.3702416],[-49.3460063,-25.3704577],[-49.3465062,-25.3707486],[-49.3467771,-25.3707942],[-49.3478152,-25.3707292],[-49.3478581,-25.3708456],[-49.3477535,-25.3710365],[-49.3481612,-25.3709202],[-49.3484079,-25.3710559],[-49.3491697,-25.3718314],[-49.349277,-25.3720447],[-49.3492314,-25.3722706],[-49.3488988,-25.3723578],[-49.3484616,-25.3723549],[-49.3478929,-25.3728202],[-49.3471247,-25.3731975],[-49.3468949,-25.3734973],[-49.3467187,-25.3740174],[-49.3467745,-25.3742869],[-49.3473672,-25.3747687],[-49.3476033,-25.3751274],[-49.3476408,-25.3756363],[-49.3478447,-25.3757332],[-49.3478393,-25.3758447],[-49.3480324,-25.3758738],[-49.3482845,-25.3757817],[-49.3488317,-25.3760579],[-49.3488585,-25.3763003],[-49.348998,-25.3762567],[-49.3491804,-25.3764166],[-49.3491965,-25.3767317],[-49.3493333,-25.377006],[-49.3499207,-25.3775818],[-49.3500709,-25.3776332],[-49.3501514,-25.3777834],[-49.3503391,-25.3777156],[-49.3506073,-25.3773666],[-49.3506985,-25.3773763],[-49.3512431,-25.3779468],[-49.3513986,-25.379313],[-49.3515944,-25.379756],[-49.3518948,-25.379819],[-49.3527531,-25.3794943],[-49.3532413,-25.3794264],[-49.3534988,-25.3795185],[-49.3535524,-25.3799014],[-49.3540728,-25.3800177],[-49.3539923,-25.380483],[-49.3541264,-25.3805848],[-49.3540781,-25.3807447],[-49.3541854,-25.3809725],[-49.3540513,-25.3812343],[-49.3543946,-25.3813845],[-49.354856,-25.3822569],[-49.3547862,-25.3826107],[-49.3550008,-25.3828239],[-49.3556043,-25.3826572],[-49.3558001,-25.3828869],[-49.3562963,-25.3828075],[-49.3568944,-25.3826979],[-49.3571144,-25.3824798],[-49.3580827,-25.3826039],[-49.3589619,-25.3825457],[-49.3596142,-25.3829451],[-49.3592709,-25.3838369],[-49.3594425,-25.3844233],[-49.3605369,-25.3857609],[-49.3604671,-25.3859887],[-49.3600138,-25.3862388],[-49.3599253,-25.3864249],[-49.3600541,-25.3868223],[-49.3601962,-25.3870481],[-49.3603464,-25.387116],[-49.3605498,-25.387081],[-49.3612546,-25.3874106],[-49.3611978,-25.3875197],[-49.3613362,-25.3877237],[-49.3624144,-25.3881115],[-49.3624788,-25.3880925],[-49.3624868,-25.3879031],[-49.3627417,-25.388017],[-49.3627738,-25.3882036],[-49.3625458,-25.3882472],[-49.3625485,-25.3883853],[-49.3628838,-25.3886256],[-49.3632084,-25.3892916],[-49.3637689,-25.3897063],[-49.3640023,-25.3899967],[-49.3640559,-25.3902366],[-49.3639379,-25.3904959],[-49.363946,-25.3907116],[-49.3637046,-25.3908521],[-49.3637663,-25.3913731],[-49.3640452,-25.3914409],[-49.3643563,-25.3920709],[-49.3646138,-25.392335],[-49.3647721,-25.3923278],[-49.3649196,-25.3924441],[-49.3647184,-25.3926307],[-49.3645307,-25.3924566],[-49.364241,-25.3924998],[-49.3641042,-25.3927518],[-49.3638279,-25.3928342],[-49.3637019,-25.3929893],[-49.3637099,-25.3931007],[-49.3638735,-25.3931686],[-49.3639004,-25.3933988],[-49.3640077,-25.3935005],[-49.3638253,-25.3936657],[-49.3638065,-25.393864],[-49.3640881,-25.3939052],[-49.3653997,-25.3949301],[-49.3657725,-25.3950174],[-49.3658369,-25.3951384],[-49.3660756,-25.395151],[-49.3664646,-25.3956957],[-49.366824,-25.3958653],[-49.3668964,-25.3958731],[-49.3670385,-25.3954728],[-49.3675106,-25.3955019],[-49.3680578,-25.3953613],[-49.3681597,-25.3955067],[-49.3680658,-25.3957083],[-49.3683046,-25.3959283],[-49.3686881,-25.3955726],[-49.3694988,-25.3958592],[-49.3699192,-25.3958411],[-49.3703162,-25.396064],[-49.3713182,-25.3962103],[-49.372234,-25.396978],[-49.3725961,-25.397416],[-49.3728348,-25.3978212],[-49.3730226,-25.3984754],[-49.3731781,-25.3985141],[-49.3731808,-25.3988165],[-49.3734812,-25.3988214],[-49.3740874,-25.3986178],[-49.3745246,-25.3986837],[-49.3750879,-25.3992992],[-49.3753373,-25.3994562],[-49.3755277,-25.3994445],[-49.3754258,-25.3997353],[-49.3750959,-25.4000958],[-49.3744093,-25.4001588],[-49.374302,-25.400372],[-49.3743985,-25.4005465],[-49.3743637,-25.4006269],[-49.3742215,-25.400624],[-49.3741249,-25.4007403],[-49.3738916,-25.4006609],[-49.3736395,-25.4007868],[-49.373449,-25.4007742],[-49.3734329,-25.4008809],[-49.3736958,-25.4009584],[-49.373846,-25.4011474],[-49.3743154,-25.4013732],[-49.3743824,-25.4015447],[-49.3746426,-25.4017802],[-49.3744039,-25.401913],[-49.3744039,-25.4020632],[-49.3746936,-25.4025769],[-49.3749752,-25.4028415],[-49.3749886,-25.4029742],[-49.3754097,-25.4029481],[-49.3755707,-25.4030208],[-49.3755948,-25.4031874],[-49.3757638,-25.4031613],[-49.3762144,-25.4032824],[-49.3764032,-25.40361],[-49.3764365,-25.4039521],[-49.3760599,-25.4040461],[-49.3757707,-25.404362],[-49.3756377,-25.4049464],[-49.3755036,-25.405053],[-49.3754607,-25.4052856],[-49.3756726,-25.4054824],[-49.3755009,-25.4058167],[-49.3755787,-25.4065988],[-49.3755224,-25.4070233],[-49.3752729,-25.4072917],[-49.3752783,-25.4075776],[-49.3750315,-25.4078974],[-49.3752917,-25.4081135],[-49.3756002,-25.4077666],[-49.3757289,-25.407786],[-49.3761849,-25.4080282],[-49.3768554,-25.4081639],[-49.3770056,-25.4082899],[-49.3771129,-25.4087163],[-49.3774348,-25.4093172],[-49.3774616,-25.409603],[-49.3772739,-25.4101748],[-49.3765711,-25.4107223],[-49.3764542,-25.4111772],[-49.3767289,-25.4114466],[-49.3771055,-25.4121981],[-49.3774188,-25.4122108],[-49.3781354,-25.4124288],[-49.3783947,-25.4126594],[-49.3784379,-25.4129464],[-49.3783065,-25.4132109],[-49.3780276,-25.4133563],[-49.3780088,-25.4139445],[-49.3784843,-25.4143214],[-49.3786716,-25.4142462],[-49.3787385,-25.414354],[-49.3785747,-25.4145732],[-49.3789113,-25.414831],[-49.3792943,-25.4149593],[-49.3798068,-25.4148221],[-49.3799917,-25.4148545],[-49.3803326,-25.4151696],[-49.3804721,-25.4157302],[-49.3802373,-25.415947],[-49.3802599,-25.4160759],[-49.3809708,-25.4164075],[-49.3810763,-25.4167151],[-49.3816118,-25.4175868],[-49.3817976,-25.4176476],[-49.3812466,-25.418213],[-49.3813638,-25.41852],[-49.3815423,-25.4186043],[-49.3819631,-25.4182206],[-49.3821572,-25.4181954],[-49.3822373,-25.4183285],[-49.3817638,-25.4186675],[-49.381773,-25.4188032],[-49.3819449,-25.41888],[-49.382296,-25.4187451],[-49.382565,-25.4188476],[-49.3828891,-25.4186885],[-49.3830438,-25.4187528],[-49.3826329,-25.4193905],[-49.381721,-25.4199089],[-49.3816727,-25.4200252],[-49.3820965,-25.42097],[-49.3823432,-25.4212219],[-49.3828582,-25.4212559],[-49.3832954,-25.4214283],[-49.3840652,-25.420844],[-49.3843147,-25.4209632],[-49.384194,-25.4214545],[-49.3842583,-25.421595],[-49.3849825,-25.4219196],[-49.3853741,-25.4225882],[-49.385299,-25.4233634],[-49.3853956,-25.4237801],[-49.3850254,-25.4240369],[-49.3847009,-25.4240592],[-49.3843817,-25.4241871],[-49.384489,-25.4252045],[-49.3849852,-25.4254496],[-49.3850657,-25.4260161],[-49.3855502,-25.4264303],[-49.3856155,-25.4266337],[-49.3862378,-25.4264884],[-49.3864363,-25.4261153],[-49.3874716,-25.4262994],[-49.3883889,-25.4267694],[-49.3887054,-25.4271037],[-49.3888164,-25.4274899],[-49.3887578,-25.4280774],[-49.3885056,-25.4287448],[-49.3886759,-25.4291995],[-49.38914,-25.4297876]]]}}]}