{"type":"FeatureCollection","features":[{"type":"Feature","properties":{"slug":"curitiba","name":"Curitiba"},"geometry":{"type":"Polygon","coordinates":[[[-49.38914,-25.4297876],[-49.3881583,-25.4308922],[-49.3889683,-25.4337408],[-49.3874582,-25.4346012],[-49.387772,-25.435262],[-49.3863987,-25.4369818],[-49.3871563,-25.4425936],[-49.3865514,-25.4453919],[-49.385965,-25.4455059],[-49.3856105,-25.4486721],[-49.3843893,-25.4496416],[-49.3837103,-25.4543691],[-49.382423,-25.4567796],[-49.3837754,-25.4623437],[-49.3838145,-25.4704942],[-49.381626,-25.488287],[-49.3806881,-25.4897568],[-49.372928,-25.4934408],[-49.3718298,-25.4967297],[-49.3707355,-25.5094749],[-49.3720382,-25.5134369],[-49.3702192,-25.5159459],[-49.3653487,-25.5178171],[-49.3604882,-25.5180559],[-49.3586858,-25.5204925],[-49.3509431,-25.5209777],[-49.3488334,-25.5194478],[-49.3478576,-25.5169891],[-49.3386612,-25.5142985],[-49.337907,-25.5157612],[-49.340173,-25.5185032],[-49.3388183,-25.521044],[-49.3404219,-25.527883],[-49.3441469,-25.5316858],[-49.340645,-25.5362242],[-49.3430349,-25.5378854],[-49.3462729,-25.5426075],[-49.3455284,-25.5486981],[-49.3420076,-25.5549686],[-49.3443357,-25.5601295],[-49.3451168,-25.5688711],[-49.342808,-25.5736094],[-49.3436491,-25.5769462],[-49.3426878,-25.5798881],[-49.3462326,-25.5811578],[-49.34534,-25.5857253],[-49.3458785,-25.5889701],[-49.3503525,-25.5944883],[-49.3523352,-25.6049302],[-49.357485,-25.6079721],[-49.3576738,-25.6162768],[-49.3596823,-25.6188075],[-49.3594591,-25.6268639],[-49.3631842,-25.6294795],[-49.3640511,-25.6319249],[-49.3658621,-25.6337202],[-49.3638107,-25.6355928],[-49.3642141,-25.6385952],[-49.3657252,-25.6411293],[-49.3576752,-25.6435043],[-49.3380652,-25.6320765],[-49.3238601,-25.6300641],[-49.3158906,-25.6231628],[-49.3034816,-25.6164974],[-49.2812021,-25.6115568],[-49.2727074,-25.6081337],[-49.2700871,-25.6099534],[-49.2694949,-25.6095293],[-49.2702958,-25.6075769],[-49.2680957,-25.6075001],[-49.2669418,-25.606639],[-49.2696926,-25.6059167],[-49.2711566,-25.6040092],[-49.2711977,-25.6024469],[-49.270106,-25.6021874],[-49.2683232,-25.6034894],[-49.2645595,-25.6003227],[-49.261457,-25.599301],[-49.2599111,-25.5974937],[-49.2578876,-25.597392],[-49.2579986,-25.5948431],[-49.258863,-25.5943062],[-49.2576063,-25.5929302],[-49.2538234,-25.592815],[-49.2559188,-25.591875],[-49.2549297,-25.5906574],[-49.2534831,-25.590389],[-49.2527053,-25.5922045],[-49.250309,-25.5929516],[-49.2495621,-25.5915151],[-49.2505211,-25.5901158],[-49.2500881,-25.5872282],[-49.2431179,-25.5856636],[-49.2432377,-25.5846736],[-49.2453005,-25.5846172],[-49.244011,-25.5831213],[-49.2427091,-25.5839672],[-49.241429,-25.5835392],[-49.2419276,-25.580994],[-49.2451122,-25.5808127],[-49.246034,-25.5774929],[-49.2441398,-25.5776241],[-49.2450339,-25.5746428],[-49.2374852,-25.563787],[-49.2232868,-25.5621507],[-49.222171,-25.5609602],[-49.2217735,-25.5570419],[-49.2239734,-25.5530858],[-49.224787,-25.5533011],[-49.2253467,-25.5523071],[-49.2227782,-25.5478312],[-49.2256158,-25.54424],[-49.2234021,-25.5423189],[-49.2258574,-25.5379558],[-49.2237629,-25.5334885],[-49.2219782,-25.5349144],[-49.2182188,-25.5326532],[-49.2165223,-25.5296118],[-49.2174401,-25.5285443],[-49.2167449,-25.5281142],[-49.2175571,-25.5261138],[-49.2184803,-25.5259315],[-49.2169922,-25.5248922],[-49.2169453,-25.5216732],[-49.2159885,-25.5203594],[-49.2163233,-25.5186006],[-49.2149156,-25.5205066],[-49.2132339,-25.5171565],[-49.2094085,-25.5175927],[-49.207914,-25.5148107],[-49.2075106,-25.5115503],[-49.2086779,-25.5100079],[-49.2066689,-25.5099222],[-49.2064436,-25.5084635],[-49.2051695,-25.5074116],[-49.2013174,-25.5135068],[-49.2010304,-25.510782],[-49.2018919,-25.5108873],[-49.2022948,-25.5095361],[-49.2011066,-25.5079844],[-49.2025461,-25.5077684],[-49.2017173,-25.5070107],[-49.2025646,-25.5063085],[-49.2010819,-25.5054435],[-49.1971173,-25.5053171],[-49.1972723,-25.5042847],[-49.1987602,-25.5034333],[-49.1974499,-25.5032439],[-49.196623,-25.5001634],[-49.1980697,-25.4994835],[-49.1937187,-25.4882751],[-49.1876762,-25.4814024],[-49.1884075,-25.4812714],[-49.1880555,-25.4800931],[-49.1869166,-25.4799574],[-49.1843182,-25.476933],[-49.1847001,-25.4716963],[-49.1895309,-25.4671119],[-49.1924488,-25.4588893],[-49.1983812,-25.4508345],[-49.1991504,-25.4456418],[-49.2004261,-25.4440878],[-49.2033887,-25.43516],[-49.2027462,-25.4340343],[-49.2030262,-25.4307236],[-49.1979522,-25.4252044],[-49.1980882,-25.4181002],[-49.1971142,-25.4160939],[-49.1955638,-25.4151934],[-49.1958364,-25.4142505],[-49.1977618,-25.414251],[-49.1984672,-25.4121471],[-49.1948194,-25.4064827],[-49.1932476,-25.3952404],[-49.1933402,-25.3907746],[-49.1947542,-25.3870756],[-49.1941588,-25.3842293],[-49.1951681,-25.3819372],[-49.1949383,-25.3785092],[-49.1973512,-25.377169],[-49.2020929,-25.3817605],[-49.2038885,-25.3821965],[-49.205346,-25.3813907],[-49.2060137,-25.3787653],[-49.2056983,-25.3745713],[-49.2075063,-25.3721806],[-49.2068234,-25.3703339],[-49.2073962,-25.3661614],[-49.2131468,-25.3615194],[-49.216733,-25.3615364],[-49.2188573,-25.3624599],[-49.2189203,-25.3637759],[-49.2218211,-25.3641127],[-49.2227599,-25.3596238],[-49.2245027,-25.3585624],[-49.2237737,-25.3564198],[-49.2287278,-25.3530531],[-49.2297373,-25.3497369],[-49.2311989,-25.3504265],[-49.2332087,-25.3498248],[-49.2372329,-25.3512411],[-49.2392726,-25.3503069],[-49.2399035,-25.3511819],[-49.2414306,-25.3512911],[-49.2432437,-25.3486048],[-49.2444374,-25.3484204],[-49.2454108,-25.3493592],[-49.2466729,-25.3486222],[-49.2505791,-25.3489158],[-49.2574425,-25.347616],[-49.2596403,-25.3481832],[-49.2632195,-25.3469887],[-49.2645519,-25.3481972],[-49.273414,-25.3450768],[-49.2752817,-25.3480904],[-49.2775456,-25.3495326],[-49.2780489,-25.3507027],[-49.279772,-25.3510024],[-49.2803445,-25.3532906],[-49.2819914,-25.3543038],[-49.2812672,-25.3552588],[-49.2819592,-25.3615363],[-49.2843195,-25.3627627],[-49.2813584,-25.36412],[-49.2827048,-25.3647307],[-49.2821118,-25.3663279],[-49.283649,-25.3673579],[-49.2834904,-25.3683298],[-49.285607,-25.3675421],[-49.2856874,-25.3693404],[-49.2875757,-25.371667],[-49.2858913,-25.3735864],[-49.2863419,-25.3762134],[-49.2848774,-25.3771343],[-49.2869559,-25.3788397],[-49.2926934,-25.3757045],[-49.2936625,-25.3763276],[-49.2955094,-25.3758644],[-49.2958439,-25.3787697],[-49.2980066,-25.3782854],[-49.2990526,-25.3793662],[-49.3001645,-25.3787212],[-49.3028476,-25.3829648],[-49.3004951,-25.3852752],[-49.3022026,-25.3859157],[-49.3027281,-25.3869522],[-49.3037928,-25.3863281],[-49.3034354,-25.3841533],[-49.3104045,-25.3836527],[-49.3120345,-25.3824944],[-49.3190906,-25.3750286],[-49.3199813,-25.3722294],[-49.323258,-25.369343],[-49.3259814,-25.3685199],[-49.3271105,-25.3671538],[-49.329131,-25.3602443],[-49.3352697,-25.3549711],[-49.3358012,-25.3530096],[-49.3353135,-25.3519851],[-49.3380488,-25.3519807],[-49.3398559,-25.350583],[-49.3404828,-25.3497256],[-49.340054,-25.3489952],[-49.3411915,-25.3482817],[-49.3415063,-25.3467155],[-49.3412411,-25.3483227],[-49.3401465,-25.3490901],[-49.3407397,-25.3497118],[-49.3411606,-25.3527958],[-49.3384784,-25.3565624],[-49.3394333,-25.3569018],[-49.3396586,-25.358167],[-49.3411338,-25.3583803],[-49.3413349,-25.3594109],[-49.3431508,-25.3597473],[-49.3428531,-25.3607584],[-49.34601,-25.3603096],[-49.3436255,-25.3623387],[-49.3439635,-25.3648302],[-49.3461039,-25.3651405],[-49.345546,-25.3663571],[-49.34601,-25.3674788],[-49.3452295,-25.3681118],[-49.3468737,-25.3685548],[-49.3460063,-25.3704577],[-49.3478152,-25.3707292],[-49.349277,-25.3720447],[-49.3471247,-25.3731975],[-49.3467745,-25.3742869],[-49.3501514,-25.3777834],[-49.3512431,-25.3779468],[-49.3515944,-25.379756],[-49.3532413,-25.3794264],[-49.3540728,-25.3800177],[-49.3550008,-25.3828239],[-49.3596142,-25.3829451],[-49.3594425,-25.3844233],[-49.3605369,-25.3857609],[-49.3600541,-25.3868223],[-49.3627417,-25.388017],[-49.3640023,-25.3899967],[-49.3637663,-25.3913731],[-49.3649196,-25.3924441],[-49.3637019,-25.3929893],[-49.3638065,-25.393864],[-49.366824,-25.3958653],[-49.3680578,-25.3953613],[-49.3713182,-25.3962103],[-49.3731808,-25.3988165],[-49.3755277,-25.3994445],[-49.3734329,-25.4008809],[-49.3764032,-25.40361],[-49.3750315,-25.4078974],[-49.3770056,-25.4082899],[-49.3774616,-25.409603],[-49.3764542,-25.4111772],[-49.3783947,-25.4126594],[-49.3780088,-25.4139445],[-49.3785747,-25.4145732],[-49.3803326,-25.4151696],[-49.3802599,-25.4160759],[-49.3817976,-25.4176476],[-49.3813638,-25.41852],[-49.3830438,-25.4187528],[-49.381721,-25.4199089],[-49.3820965,-25.42097],[-49.3843147,-25.4209632],[-49.3853741,-25.4225882],[-49.384489,-25.4252045],[-49.3856155,-25.4266337],[-49.3864363,-25.4261153],[-49.3883889,-25.4267694],[-49.38914,-25.4297876]]]}},{"type":"Feature","properties":{"slug":"palotina-parana-brazil","name":"Palotina"},"geometry":{"type":"Polygon","coordinates":[[[-53.9665566,-24.3697489],[-53.7150748,-24.3695483],[-53.714,-24.396],[-53.7154131,-24.4674687],[-53.7079823,-24.4593948],[-53.7033199,-24.4432827],[-53.6967711,-24.4406092],[-53.6918286,-24.4398963],[-53.690219,-24.4381616],[-53.6896556,-24.4322553],[-53.6833401,-24.4260655],[-53.6799672,-24.4206563],[-53.6780423,-24.4154614],[-53.6760417,-24.4016833],[-53.6741904,-24.3997516],[-53.6707273,-24.3915338],[-53.6678297,-24.3879468],[-53.6669597,-24.385593],[-53.6678369,-24.3834406],[-53.667395,-24.3823669],[-53.6635274,-24.3788721],[-53.665549,-24.3768917],[-53.6664748,-24.3741753],[-53.6615704,-24.370346],[-53.6642867,-24.3695253],[-53.6867475,-24.3694493],[-53.6890277,-24.3636214],[-53.6924306,-24.3586864],[-53.6916988,-24.355326],[-53.6919265,-24.3505006],[-53.6928826,-24.3475416],[-53.6952199,-24.3422734],[-53.6982942,-24.3386669],[-53.6982832,-24.335513],[-53.7018347,-24.3303112],[-53.7032613,-24.3294935],[-53.7042168,-24.3205658],[-53.7027573,-24.3088497],[-53.6984339,-24.2938114],[-53.6942597,-24.2860668],[-53.6924239,-24.2842249],[-53.6868458,-24.2820369],[-53.684087,-24.2817839],[-53.6824305,-24.2831292],[-53.6721826,-24.2843766],[-53.6716139,-24.2826652],[-53.6698329,-24.2815846],[-53.6705625,-24.2794575],[-53.6698893,-24.2789978],[-53.6706349,-24.2774917],[-53.6702433,-24.2760711],[-53.6716837,-24.2731603],[-53.6709648,-24.2722348],[-53.6717534,-24.2688703],[-53.6735612,-24.2667454],[-53.6732233,-24.2627866],[-53.6711902,-24.2601799],[-53.677948,-24.2523275],[-53.678515,-24.2487141],[-53.6829329,-24.2464069],[-53.6859799,-24.2474928],[-53.6890858,-24.246562],[-53.6911833,-24.247302],[-53.6955822,-24.2460255],[-53.6965907,-24.2447244],[-53.6971824,-24.2425696],[-53.6940644,-24.2197309],[-53.694937,-24.2144995],[-53.6948763,-24.2080146],[-53.6933738,-24.2056545],[-53.6942313,-24.2051492],[-53.6926795,-24.2043394],[-53.6921833,-24.2022837],[-53.6945077,-24.1996762],[-53.6960446,-24.1894512],[-53.6993323,-24.1856683],[-53.7057395,-24.1803431],[-53.7093634,-24.1789372],[-53.7257458,-24.1809055],[-53.7434518,-24.1882262],[-53.7453867,-24.1883274],[-53.7477283,-24.1872931],[-53.7477899,-24.1826612],[-53.7361148,-24.1684661],[-53.7347415,-24.163611],[-53.7359432,-24.1582857],[-53.7397197,-24.1520205],[-53.7436602,-24.1493458],[-53.7582558,-24.1530919],[-53.7649007,-24.1595619],[-53.7763765,-24.1644975],[-53.7919065,-24.1669128],[-53.7993105,-24.1690698],[-53.8016888,-24.1718467],[-53.8073515,-24.1841804],[-53.8099292,-24.1863189],[-53.8148405,-24.1850586],[-53.8352546,-24.1678944],[-53.8390344,-24.1665512],[-53.8427293,-24.1664866],[-53.8451218,-24.1683594],[-53.8461128,-24.1703097],[-53.8464667,-24.1827986],[-53.849199,-24.1869828],[-53.8509827,-24.1883],[-53.859711,-24.1910166],[-53.8654968,-24.1908585],[-53.8714993,-24.187417],[-53.8779053,-24.1806499],[-53.8831503,-24.1773695],[-53.8868335,-24.1770796],[-53.8962444,-24.1791624],[-53.9002123,-24.1791328],[-53.9042615,-24.1777605],[-53.9062744,-24.1764387],[-53.9144084,-24.1666623],[-53.9230168,-24.1630023],[-53.9249148,-24.1598876],[-53.9245635,-24.1575937],[-53.9225239,-24.1553222],[-53.9172738,-24.1526908],[-53.9111794,-24.1468037],[-53.9100197,-24.1400842],[-53.9112644,-24.1368227],[-53.9136178,-24.1354387],[-53.9197323,-24.1342218],[-53.9261313,-24.1317434],[-53.9431412,-24.1210947],[-53.9502111,-24.119865],[-53.958851,-24.1206639],[-53.9609604,-24.221957],[-53.9665566,-24.3697489]]]}}]}